IDSensor,IDStation,Pollutant,NameStation,Altitude,Province,City,DateStart,DateStop,Latitude,Longitude,Typology
10399,583,PM2.5,Bergamo - via Meucci,249,BG,Bergamo,2008-12-20,NA,45.69103740547214,9.643650579461385,UB
9740,604,PM10,Tavazzano,85,LO,Tavazzano con Villavesco,2005-04-05,NA,45.33036100181227,9.414644726627262,SB
6376,567,NOx,Chiavenna,333,SO,Chiavenna,1993-10-30,2018-07-30,46.320803497826546,9.395590913257395,NA
10025,685,Ozone,Calusco d' Adda,273,BG,Calusco d'Adda,2006-06-30,NA,45.69042907854514,9.484260927647789,SB
5824,541,CO,Limbiate,181,MB,Limbiate,1994-11-23,2011-07-01,45.597443498230305,9.125948942472387,NA
6642,542,PM_tot,Meda,222,MB,Meda,1995-11-01,1998-02-04,45.66176219189168,9.156643984551597,UT
10505,1269,NOx,Dalmine - via Verdi,207,BG,Dalmine,2010-02-12,NA,45.64970251236247,9.601223338785262,UT
5519,516,NO2,Robecchetto,135,MI,Robecchetto con Induno,1992-12-07,2017-01-01,45.51782219008838,8.766562109244964,SB
5989,584,Benzene,Bergamo - via Garibaldi,249,BG,Bergamo,1997-08-02,NA,45.69568034432694,9.66124914606551,UT
6645,515,PM_tot,Pero,141,MI,Pero,1991-05-08,2005-10-13,45.509852266792514,9.089972020337333,NA
5561,558,NO2,Busto Arsizio - Accam,206,VA,Busto Arsizio,1998-12-06,NA,45.582894292717725,8.842165456706075,SB
6775,651,NO2,Brescia - via Triumplina $,175,BS,Brescia,1999-01-15,2005-10-19,45.57158552261201,10.23148691302886,NA
10258,626,Ammonia,Corte de Cortesi,57,CR,Corte de' Cortesi con Cignone,2006-11-22,NA,45.27848755478839,10.006202391204335,RB
10451,1265,NOx,Lodi - S. Alberto,76,LO,Lodi,2009-08-03,NA,45.302783503095775,9.495273696926324,UB
17163,655,Benzene,Darfo (aria),221,BS,Darfo Boario Terme,2012-10-05,NA,45.87460210989037,10.17735680898138,SB
5531,528,NO2,Milano - Verziere,116,MI,Milano,1988-11-24,NA,45.463346740666545,9.195324807668857,UT
5560,557,NO2,Lonate Pozzolo,204,VA,Lonate Pozzolo,1996-12-05,2018-07-30,45.59402351710858,8.7407965765392,NA
10259,569,Benzene,Sondrio - via Mazzini,307,SO,Sondrio,2006-09-19,NA,46.16796681227828,9.87014407497457,UT
10001,683,NOx,Cassano d'Adda 2 - Via Milano,133,MI,Cassano d'Adda,2006-02-17,NA,45.52647254585104,9.515980483627096,UT
5669,583,Sulfur_dioxide,Bergamo - via Meucci,249,BG,Bergamo,1989-06-01,2003-06-03,45.69103740547214,9.643650579461385,UB
10349,527,PM2.5,Castano Primo,175,MI,Castano Primo,2007-03-03,2017-01-01,45.54594268367404,8.776104584370271,NA
6934,591,PM10,Seriate,256,BG,Seriate,2000-01-28,2003-08-12,45.68635606439914,9.714947917631529,NA
10153,702,NOx,Pieve di Coriano,16,MN,Pieve di Coriano,2006-11-29,NA,45.03394281418463,11.116918109540054,NA
5593,590,NO2,Ponte S.Pietro,225,BG,Ponte San Pietro,1990-07-04,2013-05-26,45.696081938463465,9.587784018279269,NA
6428,633,NOx,Soresina,70,CR,Soresina,2002-01-01,NA,45.28397715446764,9.863398419993635,ST
5746,557,Ozone,Lonate Pozzolo,204,VA,Lonate Pozzolo,1996-12-13,2005-08-17,45.59402351710858,8.7407965765392,NA
10586,677,PM2.5,Cremona - Via Fatebenefratelli,43,CR,Cremona,2010-07-28,NA,45.14254063221695,10.043836158369393,UB
10407,1263,NO2,Villa di Serio,280,BG,Villa di Serio,2008-10-08,2018-07-30,45.73589144532835,9.738394788043442,NA
10450,655,PM2.5,Darfo (aria),221,BS,Darfo Boario Terme,2008-12-23,NA,45.87460210989037,10.17735680898138,SB
17126,705,Benzene,Milano - Pascal Città Studi,122,MI,Milano,2012-09-13,NA,45.47899606168744,9.235491038497502,UB
5950,626,NO2,Corte de Cortesi,57,CR,Corte de' Cortesi con Cignone,1996-05-17,NA,45.27848755478839,10.006202391204335,RB
5603,600,NO2,Lodi - viale Vignati,80,LO,Lodi,1999-12-30,NA,45.30601298752377,9.48526286320174,UT
6702,643,Sulfur_dioxide,Pavia - p.zza Minerva,77,PV,Pavia,2002-03-03,2003-08-11,45.18632908049483,9.146666041286784,UT
5555,552,NO2,Varese - Vidoletti,425,VA,Varese,1991-12-24,NA,45.83690077655548,8.80392612667495,UB
5840,543,CO,Vimercate,194,MB,Vimercate,1994-12-23,2011-07-01,45.614920870442226,9.368396161785157,NA
6278,613,NOx,Spino d`Adda - SP1 $,80,CR,Spino d'Adda,2000-01-13,2006-04-13,45.389753164229845,9.489402571088535,NA
6342,515,NOx,Pero,141,MI,Pero,1986-12-10,2018-07-30,45.509852266792514,9.089972020337333,NA
6398,554,NOx,Saronno - via Santuario,212,VA,Saronno,1997-03-28,NA,45.626218960836006,9.04006309067821,UB
5799,564,CO,Erba - via Battisti,279,CO,Erba,2009-01-01,2014-03-05,45.808573806922965,9.221779204488435,UB
10547,1269,PM2.5,Dalmine - via Verdi,207,BG,Dalmine,2010-02-26,NA,45.64970251236247,9.601223338785262,UT
12621,542,Cadmium,Meda,222,MB,Meda,2008-04-18,NA,45.66176219189168,9.156643984551597,UT
5837,513,CO,Trezzo d`Adda,199,MI,Trezzo sull'Adda,2001-02-22,2017-01-01,45.61369175877737,9.50812248390592,SB
6280,604,NOx,Tavazzano,85,LO,Tavazzano con Villavesco,2000-01-13,NA,45.33036100181227,9.414644726627262,SB
6867,662,Sulfur_dioxide,Vobarno,242,BS,Vobarno,1990-02-16,2012-01-04,45.63635959038354,10.512962803725342,NA
6748,647,NOx,Breno,342,BS,Breno,1992-06-09,2018-07-30,45.956830532998445,10.301058339435231,NA
5855,537,CO,Lainate,176,MI,Lainate,1991-09-25,2011-07-13,45.56753666798259,9.025796665025974,NA
10288,706,Ozone,Lecco - Via Sora,272,LC,Lecco,2007-06-28,NA,45.86374884127965,9.399950344681852,UB
6300,544,NOx,Cormano,153,MI,Cormano,1994-10-24,NA,45.551041944372415,9.162613653151322,UB
12016,1297,NOx,Spinadesco,48,CR,Spinadesco,2011-02-08,NA,45.150468869856816,9.930596472272326,RI
5961,630,NO2,Crema - via Indipendenza $,78,CR,Crema,1999-11-02,2007-04-03,45.369413822391465,9.677268708195667,NA
5566,563,NO2,Fino Mornasco,304,CO,Fino Mornasco,1992-01-08,2018-07-30,45.74804440954574,9.042592844183936,NA
5574,571,NO2,Bormio,1225,SO,Bormio,1993-11-01,NA,46.46952397132585,10.375432759159036,UB
10384,693,Benzene,Sannazzaro de' Burgondi - AGIP,85,PV,Sannazzaro de' Burgondi,2007-01-01,NA,45.10276627684137,8.90417452771467,UI
10027,685,PM10,Calusco d' Adda,273,BG,Calusco d'Adda,2006-06-30,NA,45.69042907854514,9.484260927647789,SB
9983,672,PM2.5,Cornale (Voghera Energia),74,PV,Cornale,2006-02-02,NA,45.04007657202963,8.914144599002409,RB
20004,705,BlackCarbon,Milano - Pascal Città Studi,122,MI,Milano,2013-09-30,NA,45.47899606168744,9.235491038497502,UB
5542,539,NO2,Milano - viale Liguria,115,MI,Milano,1991-10-24,NA,45.443857653564926,9.167944501742676,UT
12590,669,Cadmium,Brescia - Villaggio Sereno,70,BS,Brescia,2008-04-01,NA,45.513038818653754,10.19194188877931,UB
6623,574,PM_tot,Lecco - Via Amendola,214,LC,Lecco,1991-02-17,1999-11-01,45.850191194578535,9.395577066893223,UT
6264,608,NOx,Codogno - via Trento,59,LO,Codogno,2000-01-13,NA,45.15937280234111,9.69814824935254,UT
17286,1374,NO2,Monza Parco,181,MB,Monza,2013-05-01,NA,45.60123219955139,9.27507265782848,SB
5652,558,Sulfur_dioxide,Busto Arsizio - Accam,206,VA,Busto Arsizio,1998-12-06,NA,45.582894292717725,8.842165456706075,SB
5539,536,NO2,Arese,157,MI,Arese,1991-10-16,2018-07-30,45.543433254501636,9.080725831284644,NA
5661,591,Sulfur_dioxide,Seriate,256,BG,Seriate,1991-10-31,2003-06-03,45.68635606439914,9.714947917631529,NA
6330,542,NOx,Meda,222,MB,Meda,1995-11-01,NA,45.66176219189168,9.156643984551597,UT
6204,592,NOx,Treviglio,191,BG,Treviglio,1991-06-02,NA,45.51933498138716,9.592009994888425,UT
6198,589,NOx,Nembro $,309,BG,Nembro,1991-06-07,2007-03-14,45.743036830343144,9.760535572770022,NA
6242,577,NOx,Calolziocorte,215,LC,Calolziocorte,1994-11-29,2018-07-30,45.80209550514092,9.429467320277878,NA
12020,1297,Ozone,Spinadesco,48,CR,Spinadesco,2011-02-04,NA,45.150468869856816,9.930596472272326,RI
6364,517,NOx,Turbigo,141,MI,Turbigo,1990-01-11,NA,45.52655086994247,8.736496578379215,UB
5828,542,CO,Meda,222,MB,Meda,1995-11-01,NA,45.66176219189168,9.156643984551597,UT
5504,501,NO2,Milano - viale Marche,129,MI,Milano,1980-09-18,NA,45.49631644365102,9.190933555313624,UT
17082,569,Benzo_a_pyrene,Sondrio - via Mazzini,307,SO,Sondrio,2008-04-22,2011-12-30,46.16796681227828,9.87014407497457,UT
6832,657,Ozone,Lonato,180,BS,Lonato del Garda,2004-03-14,NA,45.463753136210265,10.480772043571283,UB
20082,573,Ammonia,Colico,229,LC,Colico,2013-11-20,NA,46.1381409051264,9.384687247651794,SB
5564,561,NO2,Como - viale Cattaneo,202,CO,Como,1991-02-17,NA,45.81504286011291,9.06697137484454,UT
6912,546,PM10,Magenta,137,MI,Magenta,1998-02-25,NA,45.462415791106615,8.880210433125571,UB
6392,557,NOx,Lonate Pozzolo,204,VA,Lonate Pozzolo,1996-12-05,2018-07-30,45.59402351710858,8.7407965765392,NA
12579,1303,NO2,Cremona - via Gerre Borghi,36,CR,Cremona,2012-01-01,2017-01-01,45.10953938027215,10.069230734956498,RB
6831,657,NOx,Lonato,180,BS,Lonato del Garda,1990-01-01,NA,45.463753136210265,10.480772043571283,UB
6346,514,NOx,Rho - via Statuto,152,MI,Rho,1991-10-03,NA,45.523425662003476,9.044599871111005,UB
10019,685,NO2,Calusco d' Adda,273,BG,Calusco d'Adda,2006-06-30,NA,45.69042907854514,9.484260927647789,SB
5568,565,NO2,Cantù - via Meucci,369,CO,Cantù,1994-02-15,NA,45.73083672267427,9.125734327022926,SB
9802,670,NO2,Mantova - S.Agnese,22,MN,Mantova,2004-12-31,NA,45.16056833010576,10.79556411370788,UB
5815,536,CO,Arese,157,MI,Arese,1991-10-15,2011-07-22,45.543433254501636,9.080725831284644,NA
5737,578,Ozone,Varenna $,220,LC,Varenna,1991-02-17,2008-02-07,46.00942283474235,9.285304059583972,NA
5685,576,Sulfur_dioxide,Merate,279,LC,Merate,1991-02-17,2003-07-30,45.69795198970243,9.406190938686596,UT
20032,693,NOx,Sannazzaro de' Burgondi - AGIP,85,PV,Sannazzaro de' Burgondi,2013-10-24,NA,45.10276627684137,8.90417452771467,UI
9918,664,NOx,Mantova - p.zza Gramsci,18,MN,Mantova,2004-06-08,NA,45.151743379576594,10.78140770009565,UT
30158,649,PM2.5,Brescia - Broletto,149,BS,Brescia,2013-12-13,NA,45.540057846971386,10.222818449274216,UT
5580,577,NO2,Calolziocorte,215,LC,Calolziocorte,1994-11-28,2018-07-30,45.80209550514092,9.429467320277878,NA
10456,1265,PM2.5,Lodi - S. Alberto,76,LO,Lodi,2009-08-03,NA,45.302783503095775,9.495273696926324,UB
5846,570,CO,Tirano - viale Italia,439,SO,Tirano,1996-05-30,2018-07-30,46.21774621439411,10.156470232146322,NA
12685,633,Arsenic,Soresina,70,CR,Soresina,2008-04-01,NA,45.28397715446764,9.863398419993635,ST
6940,601,PM10,Montanaso,84,LO,Montanaso Lombardo,2004-07-30,2017-01-01,45.33613100905199,9.45255388178171,RI
10320,548,PM10,Milano - via Senato,118,MI,Milano,2007-08-10,NA,45.470499014097,9.197460360112531,UT
10018,685,Benzene,Calusco d' Adda,273,BG,Calusco d'Adda,2006-06-30,NA,45.69042907854514,9.484260927647789,SB
6880,665,NO2,Viadana,37,MN,Viadana,2003-10-25,NA,44.92469404955067,10.517502067117825,NA
5679,562,Sulfur_dioxide,Mariano Comense,256,CO,Mariano Comense,1991-02-17,2002-06-05,45.68865731381679,9.180657768638271,NA
9856,672,Ozone,Cornale (Voghera Energia),74,PV,Cornale,2005-07-29,NA,45.04007657202963,8.914144599002409,RB
10004,684,NOx,Truccazzano,105,MI,Truccazzano,2006-02-17,2018-01-01,45.48455813667995,9.471348388974729,NA
6368,507,NOx,Villasanta $,176,MB,Villasanta,1990-02-13,2010-06-20,45.608621349658364,9.307118451572562,NA
10133,700,CO,Melara,12,RO,Melara,2006-11-28,NA,45.063214361613305,11.20921074969938,NA
10405,584,PM10,Bergamo - via Garibaldi,249,BG,Bergamo,2008-12-19,NA,45.69568034432694,9.66124914606551,UT
6062,503,Benzene,Milano - P.zza  Zavattari,122,MI,Milano,2000-01-17,2018-07-30,45.47606340509791,9.141786267186658,NA
6057,548,Benzene,Milano - via Senato,118,MI,Milano,1999-01-01,NA,45.470499014097,9.197460360112531,UT
6764,649,CO,Brescia - Broletto,149,BS,Brescia,1983-01-01,NA,45.540057846971386,10.222818449274216,UT
30162,669,NOx,Brescia - Villaggio Sereno,70,BS,Brescia,2013-01-22,NA,45.513038818653754,10.19194188877931,UB
6426,631,NOx,Piadena,30,CR,Piadena,2002-02-16,2018-07-30,45.12979322367744,10.379831668522419,NA
5552,549,NO2,Milano - P.zza Abbiategrasso,111,MI,Milano,1995-05-20,2018-07-30,45.432197305733055,9.182138919080943,NA
6804,654,Ozone,Sarezzo - via Minelli,269,BS,Sarezzo,2004-03-12,NA,45.64962671224069,10.205090218837002,UB
10049,689,Sulfur_dioxide,Galliavola - AGIP,87,PV,Galliavola,2007-01-01,2017-01-01,45.095121633481334,8.820308319996208,RB
9872,673,PM10,Voghera - via Pozzoni,90,PV,Voghera,2005-07-05,NA,44.99954598914026,9.008437381815693,UB
5677,564,Sulfur_dioxide,Erba - via Battisti,279,CO,Erba,2009-06-13,NA,45.808573806922965,9.221779204488435,UB
10085,695,PM2.5,Ponti sul Mincio,113,MN,Ponti sul Mincio,2007-01-12,NA,45.41277169168634,10.683357343786835,SB
5586,583,NO2,Bergamo - via Meucci,249,BG,Bergamo,1989-06-01,NA,45.69103740547214,9.643650579461385,UB
6232,561,NOx,Como - viale Cattaneo,202,CO,Como,1991-01-01,NA,45.81504286011291,9.06697137484454,UT
5590,587,NO2,Casnigo - via Europa $,514,BG,Casnigo,1989-11-08,2005-05-05,45.81463898053286,9.867700614310943,NA
5955,628,NO2,Cremona - p.zza Libertà $,61,CR,Cremona,1992-11-01,2006-04-04,45.13737896273478,10.032359066275932,NA
9916,668,NOx,Mantova - Lunetta 2,25,MN,Mantova,2004-08-04,2018-07-30,45.157985278189244,10.823931433968092,NA
30159,655,NOx,Darfo (aria),221,BS,Darfo Boario Terme,2013-01-23,NA,45.87460210989037,10.17735680898138,SB
6284,511,NOx,Abbiategrasso,118,MI,Abbiategrasso,1998-01-23,2018-07-30,45.395404490146184,8.913416566778292,NA
10028,685,PM2.5,Calusco d' Adda,273,BG,Calusco d'Adda,2006-06-30,NA,45.69042907854514,9.484260927647789,SB
20042,703,Ammonia,Schivenoglia,NA,MN,Schivenoglia,2013-10-24,NA,45.016877820755425,11.07609463264049,RB
5798,561,CO,Como - viale Cattaneo,202,CO,Como,1991-02-17,NA,45.81504286011291,9.06697137484454,UT
5681,577,Sulfur_dioxide,Calolziocorte,215,LC,Calolziocorte,1993-06-01,2002-11-28,45.80209550514092,9.429467320277878,NA
5725,528,Ozone,Milano - Verziere,116,MI,Milano,1988-09-20,NA,45.463346740666545,9.195324807668857,UT
6374,571,NOx,Bormio,1225,SO,Bormio,1993-11-01,NA,46.46952397132585,10.375432759159036,UB
5674,588,Sulfur_dioxide,Tavernola Bergamasca,191,BG,Tavernola Bergamasca,1990-08-09,2011-09-12,45.71629992411727,10.044765999368437,SI
10023,685,CO,Calusco d' Adda,273,BG,Calusco d'Adda,2006-06-30,NA,45.69042907854514,9.484260927647789,SB
6338,545,NOx,Motta Visconti (aria),100,MI,Motta Visconti,1998-03-17,NA,45.281956197427846,8.988562726793255,SB
9963,508,PM10,Cassano d`Adda - Via di Vona,133,MI,Cassano d'Adda,2006-01-01,2017-12-12,45.52000867032165,9.512220968943545,NA
6665,565,Ozone,Cantù - via Meucci,369,CO,Cantù,2005-01-17,NA,45.73083672267427,9.125734327022926,SB
6306,518,NOx,Galliate,153,NO,Galliate,1992-12-07,2017-01-01,45.46804407930967,8.73676932023362,NA
5724,513,Ozone,Trezzo d`Adda,199,MI,Trezzo sull'Adda,2001-02-22,2017-01-01,45.61369175877737,9.50812248390592,SB
5849,556,CO,Gallarate - P.zza S.Lorenzo,240,VA,Gallarate,1991-06-25,2012-01-04,45.65745982503037,8.797570832831466,NA
9800,671,CO,Mantova - Tridolino,22,MN,Mantova,2005-01-20,2017-01-01,45.153319585785574,10.859263911962309,RI
10506,1269,Benzene,Dalmine - via Verdi,207,BG,Dalmine,2010-09-01,NA,45.64970251236247,9.601223338785262,UT
10507,1269,NO2,Dalmine - via Verdi,207,BG,Dalmine,2010-02-12,NA,45.64970251236247,9.601223338785262,UT
6845,659,NOx,Odolo,349,BS,Odolo,1990-10-08,NA,45.64604963372525,10.38929530279196,SB
12638,548,Arsenic,Milano - via Senato,118,MI,Milano,2008-07-09,NA,45.470499014097,9.197460360112531,UT
20216,690,Sulfur_dioxide,Casoni - AGIP,73,PV,Mezzana Bigli,2006-01-20,NA,45.069658641385914,8.86888929943922,RB
5832,514,CO,Rho - via Statuto,152,MI,Rho,1991-10-02,NA,45.523425662003476,9.044599871111005,UB
29041,561,Benzene,Como - viale Cattaneo,202,CO,Como,NA,NA,45.81504286011291,9.06697137484454,UT
5821,540,CO,Garbagnate,175,MI,Garbagnate Milanese,1992-11-30,2011-07-14,45.5717162655023,9.07824159056828,NA
12029,706,PM2.5,Lecco - Via Sora,272,LC,Lecco,2000-12-31,NA,45.86374884127965,9.399950344681852,UB
10039,687,CO,Ferno,215,VA,Ferno,2006-11-06,NA,45.61924377994763,8.756970445453431,UB
6837,658,NO2,Manerbio - via Solferino,66,BS,Manerbio,1992-08-28,2015-03-03,45.34995949312804,10.144752235947312,NA
5511,508,NO2,Cassano d`Adda - Via di Vona,133,MI,Cassano d'Adda,1984-12-17,2018-01-01,45.52000867032165,9.512220968943545,NA
12611,546,Benzo_a_pyrene,Magenta,137,MI,Magenta,2008-04-15,NA,45.462415791106615,8.880210433125571,UB
6786,653,NO2,Brescia - via Ziziola,125,BS,Brescia,1997-10-15,2018-07-30,45.51455919056731,10.218463502801265,NA
5513,510,NO2,Inzago,138,MI,Inzago,1991-01-01,2018-01-01,45.539768856661,9.486885367436152,NA
6370,543,NOx,Vimercate,194,MB,Vimercate,1994-12-23,2018-07-30,45.614920870442226,9.368396161785157,NA
12675,1264,Cadmium,Sondrio - via Paribelli,290,SO,Sondrio,2008-04-01,NA,46.167852440665115,9.879209924469903,UB
5714,535,Ozone,Lacchiarella,97,MI,Lacchiarella,1998-09-17,2018-01-01,45.32451741284727,9.134517264199278,NA
9877,674,NO2,Monza - via Machiavelli,162,MB,Monza,2005-10-21,NA,45.58026348442243,9.273573092713274,UB
6952,654,PM10,Sarezzo - via Minelli,269,BS,Sarezzo,2000-06-23,NA,45.64962671224069,10.205090218837002,UB
6904,596,Ozone,Osio Sotto,182,BG,Osio Sotto,2004-09-08,NA,45.62055567939559,9.611737821812373,SB
6813,656,NO2,Gambara,47,BS,Gambara,1990-02-16,NA,45.24954362474624,10.299119496064078,RB
5610,607,NO2,Abbadia Cerreto,64,LO,Abbadia Cerreto,2000-01-13,NA,45.309502269282255,9.585790416120414,NA
5549,546,NO2,Magenta,137,MI,Magenta,1995-04-22,NA,45.462415791106615,8.880210433125571,UB
6853,660,Sulfur_dioxide,Ospitaletto,155,BS,Ospitaletto,1990-02-16,2003-09-16,45.55325139975436,10.084916143968398,NA
6801,654,CO,Sarezzo - via Minelli,269,BS,Sarezzo,1990-02-18,NA,45.64962671224069,10.205090218837002,UB
10037,687,NOx,Ferno,215,VA,Ferno,2006-11-06,NA,45.61924377994763,8.756970445453431,UB
9961,669,PM10,Brescia - Villaggio Sereno,70,BS,Brescia,2006-01-01,NA,45.513038818653754,10.19194188877931,UB
5653,555,Sulfur_dioxide,Busto Arsizio - via Magenta,222,VA,Busto Arsizio,1991-05-25,2012-01-03,45.610736040012604,8.850115752092071,NA
10035,672,Benzene,Cornale (Voghera Energia),74,PV,Cornale,2006-02-02,NA,45.04007657202963,8.914144599002409,RB
10072,693,PM10,Sannazzaro de' Burgondi - AGIP,85,PV,Sannazzaro de' Burgondi,2007-01-01,NA,45.10276627684137,8.90417452771467,UI
10143,701,NO2,Ostiglia - via Colombo,14,MN,Ostiglia,2006-11-29,2017-01-01,45.073311155731965,11.137034007299844,UB
5598,595,NO2,Filago - via Don Milani,190,BG,Filago,1992-03-06,NA,45.63386450908066,9.556084255790864,UB
5567,564,NO2,Erba - via Battisti,279,CO,Erba,2009-06-13,NA,45.808573806922965,9.221779204488435,UB
6852,660,NO2,Ospitaletto,155,BS,Ospitaletto,1990-02-16,2018-07-30,45.55325139975436,10.084916143968398,NA
10390,556,PM10,Gallarate - P.zza S.Lorenzo,240,VA,Gallarate,2003-01-01,2018-07-30,45.65745982503037,8.797570832831466,NA
5753,553,PM10,Saronno - via Marconi,211,VA,Saronno,2000-11-22,2003-12-12,45.62396968592561,9.037226525673523,NA
9835,664,PM10,Mantova - p.zza Gramsci,18,MN,Mantova,2004-12-28,NA,45.151743379576594,10.78140770009565,UT
10321,707,NO2,Mortara,108,PV,Mortara,2007-10-04,2017-01-01,45.254728720788826,8.74415437971093,UB
5545,542,NO2,Meda,222,MB,Meda,1995-11-01,NA,45.66176219189168,9.156643984551597,UT
5587,584,NO2,Bergamo - via Garibaldi,249,BG,Bergamo,1994-06-21,NA,45.69568034432694,9.66124914606551,UT
5831,515,CO,Pero,141,MI,Pero,1991-05-10,2018-07-30,45.509852266792514,9.089972020337333,NA
6859,661,NO2,Rezzato,147,BS,Rezzato,1992-08-05,NA,45.51570829484459,10.336240422996532,SI
17162,681,PM2.5,Moggio,1194,LC,Moggio,2012-10-20,NA,45.91278752030292,9.497538167653424,RB
5548,545,NO2,Motta Visconti (aria),100,MI,Motta Visconti,1998-03-17,NA,45.281956197427846,8.988562726793255,SB
5617,508,Sulfur_dioxide,Cassano d`Adda - Via di Vona,133,MI,Cassano d'Adda,1976-10-14,2017-12-11,45.52000867032165,9.512220968943545,NA
6649,507,PM_tot,Villasanta $,176,MB,Villasanta,1990-02-27,2008-07-24,45.608621349658364,9.307118451572562,NA
6606,591,PM_tot,Seriate,256,BG,Seriate,1991-11-20,2000-01-27,45.68635606439914,9.714947917631529,NA
5512,509,NO2,Rivolta d` Adda - via Beccaria,101,CR,Rivolta d'Adda,1991-01-01,2018-01-01,45.46855301694732,9.511345333837518,NA
5648,507,Sulfur_dioxide,Villasanta $,176,MB,Villasanta,1976-12-18,1999-05-03,45.608621349658364,9.307118451572562,NA
6891,667,Ozone,Marmirolo - Bosco Fontana,22,MN,Marmirolo,2003-01-01,2018-01-01,45.20817903938493,10.74263625117323,NA
5807,576,CO,Merate,279,LC,Merate,1991-12-24,NA,45.69795198970243,9.406190938686596,UT
6939,600,PM10,Lodi - viale Vignati,80,LO,Lodi,2000-12-05,NA,45.30601298752377,9.48526286320174,UT
10168,703,Sulfur_dioxide,Schivenoglia,NA,MN,Schivenoglia,2006-12-13,NA,45.016877820755425,11.07609463264049,RB
10432,1264,NO2,Sondrio - via Paribelli,290,SO,Sondrio,2009-01-04,NA,46.167852440665115,9.879209924469903,UB
6691,642,Ozone,Pavia - via Folperti,77,PV,Pavia,2002-06-01,NA,45.19467609907785,9.164638300630086,UB
5954,627,Ozone,Cremona - p.zza Cadorna,39,CR,Cremona,1997-12-11,2010-08-30,45.13194691285173,10.015741513336042,UT
5696,606,Sulfur_dioxide,S.Giuliano Milanese,97,MI,San Giuliano Milanese,2000-01-13,2015-12-15,45.39619462552717,9.282700075557845,UT
6781,652,NO2,Brescia - via Turati,154,BS,Brescia,1999-01-13,NA,45.539529434955995,10.231785907477223,UT
6777,651,CO,Brescia - via Triumplina $,175,BS,Brescia,1999-01-15,2005-10-19,45.57158552261201,10.23148691302886,NA
10112,698,Ozone,Ceneselli,13,RO,Ceneselli,2006-11-28,2017-01-01,45.01325676849334,11.372344948058235,NA
6356,504,NOx,Sesto S.Giovanni,139,MI,Sesto San Giovanni,1980-12-18,NA,45.53476576509224,9.236107923411636,UT
12687,633,Lead,Soresina,70,CR,Soresina,2008-04-01,NA,45.28397715446764,9.863398419993635,ST
12598,609,Lead,Casirate d`Adda,108,BG,Casirate d'Adda,2008-04-24,NA,45.49822713394494,9.556232262351761,RB
5656,553,Sulfur_dioxide,Saronno - via Marconi,211,VA,Saronno,1993-06-25,2001-12-18,45.62396968592561,9.037226525673523,NA
5565,562,NO2,Mariano Comense,256,CO,Mariano Comense,1991-02-17,2015-03-01,45.68865731381679,9.180657768638271,NA
6826,657,NO2,Lonato,180,BS,Lonato del Garda,1990-02-16,NA,45.463753136210265,10.480772043571283,UB
5826,546,CO,Magenta,137,MI,Magenta,1995-04-22,NA,45.462415791106615,8.880210433125571,UB
5678,563,Sulfur_dioxide,Fino Mornasco,304,CO,Fino Mornasco,1991-02-18,2007-11-29,45.74804440954574,9.042592844183936,NA
12604,655,Lead,Darfo (aria),221,BS,Darfo Boario Terme,2008-04-18,NA,45.87460210989037,10.17735680898138,SB
5695,601,Sulfur_dioxide,Montanaso,84,LO,Montanaso Lombardo,2000-01-13,2008-04-11,45.33613100905199,9.45255388178171,RI
12589,669,Arsenic,Brescia - Villaggio Sereno,70,BS,Brescia,2008-04-01,NA,45.513038818653754,10.19194188877931,UB
6408,626,NOx,Corte de Cortesi,57,CR,Corte de' Cortesi con Cignone,2002-01-01,NA,45.27848755478839,10.006202391204335,RB
6604,589,PM_tot,Nembro $,309,BG,Nembro,1991-06-05,2005-06-13,45.743036830343144,9.760535572770022,NA
6258,578,NOx,Varenna $,220,LC,Varenna,1991-01-01,2008-02-07,46.00942283474235,9.285304059583972,NA
17290,1374,PM10,Monza Parco,181,MB,Monza,2013-02-15,NA,45.60123219955139,9.27507265782848,SB
10279,705,NO2,Milano - Pascal Città Studi,122,MI,Milano,2007-06-16,NA,45.47899606168744,9.235491038497502,UB
12581,1303,Ozone,Cremona - via Gerre Borghi,36,CR,Cremona,2012-01-01,2018-01-01,45.10953938027215,10.069230734956498,RB
20401,571,Benzene,Bormio,1225,SO,Bormio,2017-02-21,NA,46.46952397132585,10.375432759159036,UB
5657,554,Sulfur_dioxide,Saronno - via Santuario,212,VA,Saronno,1991-05-09,2001-03-24,45.626218960836006,9.04006309067821,UB
5703,572,Sulfur_dioxide,Morbegno - via Cortivacci,262,SO,Morbegno,1998-09-29,2008-08-06,46.132282960003735,9.566179893984474,UB
6650,543,PM_tot,Vimercate,194,MB,Vimercate,1995-02-10,1998-02-04,45.614920870442226,9.368396161785157,NA
9852,672,NO2,Cornale (Voghera Energia),74,PV,Cornale,2005-07-29,NA,45.04007657202963,8.914144599002409,RB
6641,501,PM_tot,Milano - viale Marche,129,MI,Milano,1976-01-22,1996-04-01,45.49631644365102,9.190933555313624,UT
5559,556,NO2,Gallarate - P.zza S.Lorenzo,240,VA,Gallarate,1991-06-26,2018-07-30,45.65745982503037,8.797570832831466,NA
10002,683,CO,Cassano d'Adda 2 - Via Milano,133,MI,Cassano d'Adda,2006-04-22,NA,45.52647254585104,9.515980483627096,UT
12674,1264,Arsenic,Sondrio - via Paribelli,290,SO,Sondrio,2008-04-01,NA,46.167852440665115,9.879209924469903,UB
6607,591,PM_tot,Seriate,256,BG,Seriate,2000-09-07,2002-04-04,45.68635606439914,9.714947917631529,NA
6656,556,PM_tot,Gallarate - P.zza S.Lorenzo,240,VA,Gallarate,1991-07-16,1999-12-16,45.65745982503037,8.797570832831466,NA
12641,548,Benzo_a_pyrene,Milano - via Senato,118,MI,Milano,2008-07-10,NA,45.470499014097,9.197460360112531,UT
6582,561,Ozone,Como - viale Cattaneo,202,CO,Como,1991-02-17,NA,45.81504286011291,9.06697137484454,UT
9874,502,PM2.5,Milano - via Juvara,122,MI,Milano,2005-11-22,2007-06-11,45.473225708577175,9.222315138737468,NA
6766,649,NOx,Brescia - Broletto,149,BS,Brescia,1992-08-05,NA,45.540057846971386,10.222818449274216,UT
10355,516,CO,Robecchetto,135,MI,Robecchetto con Induno,2007-02-28,2017-01-01,45.51782219008838,8.766562109244964,SB
6706,643,NOx,Pavia - p.zza Minerva,77,PV,Pavia,2002-03-03,NA,45.18632908049483,9.146666041286784,UT
6686,642,Sulfur_dioxide,Pavia - via Folperti,77,PV,Pavia,2002-06-01,NA,45.19467609907785,9.164638300630086,UB
6254,575,NOx,Nibionno,310,LC,Nibionno,1992-01-08,2018-07-30,45.751111261617815,9.265020964805544,NA
17041,583,Lead,Bergamo - via Meucci,249,BG,Bergamo,2012-01-13,NA,45.69103740547214,9.643650579461385,UB
5707,551,Ozone,Arconate (aria),182,MI,Arconate,1999-01-20,NA,45.54851735741946,8.847321929216262,SB
5949,625,Ozone,Casalmaggiore - via Volta $,23,CR,Casalmaggiore,1996-05-19,2007-02-21,44.980660403835316,10.427376916159512,NA
12629,705,Benzo_a_pyrene,Milano - Pascal Città Studi,122,MI,Milano,2008-04-02,NA,45.47899606168744,9.235491038497502,UB
5819,544,CO,Cormano,153,MI,Cormano,1994-10-29,2011-12-31,45.551041944372415,9.162613653151322,UB
5664,612,Sulfur_dioxide,Filago - via Fermi,176,BG,Filago,1992-07-17,2017-01-01,45.6244564811923,9.556504350318216,SI
5805,574,CO,Lecco - Via Amendola,214,LC,Lecco,1991-02-17,NA,45.850191194578535,9.395577066893223,UT
6911,543,PM10,Vimercate,194,MB,Vimercate,1998-02-06,2018-07-30,45.614920870442226,9.368396161785157,NA
12676,1264,Benzo_a_pyrene,Sondrio - via Paribelli,290,SO,Sondrio,2008-04-22,NA,46.167852440665115,9.879209924469903,UB
10269,502,Ammonia,Milano - via Juvara,122,MI,Milano,2007-03-28,2007-06-11,45.473225708577175,9.222315138737468,NA
5642,504,Sulfur_dioxide,Sesto S.Giovanni,139,MI,Sesto San Giovanni,1974-09-03,1999-05-04,45.53476576509224,9.236107923411636,UT
5578,575,NO2,Nibionno,310,LC,Nibionno,1991-12-20,2018-07-30,45.751111261617815,9.265020964805544,NA
5686,575,Sulfur_dioxide,Nibionno,310,LC,Nibionno,1991-02-17,2003-06-10,45.751111261617815,9.265020964805544,NA
9880,674,CO,Monza - via Machiavelli,162,MB,Monza,2005-10-21,NA,45.58026348442243,9.273573092713274,UB
5709,512,Ozone,Carate Brianza,250,MB,Carate Brianza,1995-02-15,2018-01-01,45.672024734078455,9.234591661788048,NA
12623,542,Benzo_a_pyrene,Meda,222,MB,Meda,2008-04-18,NA,45.66176219189168,9.156643984551597,UT
5708,536,Ozone,Arese,157,MI,Arese,1995-10-03,2018-01-01,45.543433254501636,9.080725831284644,NA
5736,575,Ozone,Nibionno,310,LC,Nibionno,1996-11-07,2018-01-01,45.751111261617815,9.265020964805544,NA
5810,602,CO,Melegnano,83,MI,Melegnano,2000-01-13,NA,45.35428575070997,9.329243424113708,NA
10290,706,PM10,Lecco - Via Sora,272,LC,Lecco,2000-12-31,NA,45.86374884127965,9.399950344681852,UB
6905,502,PM10,Milano - via Juvara,122,MI,Milano,1998-02-13,2007-06-11,45.473225708577175,9.222315138737468,NA
6298,529,NOx,Cinisello Balsamo,149,MI,Cinisello Balsamo,1988-11-24,2017-01-01,45.55232578741208,9.227764233272634,UT
12588,669,Nikel,Brescia - Villaggio Sereno,70,BS,Brescia,2008-04-01,NA,45.513038818653754,10.19194188877931,UB
5616,609,Sulfur_dioxide,Casirate d`Adda,108,BG,Casirate d'Adda,1984-12-14,2008-02-22,45.49822713394494,9.556232262351761,RB
12605,655,Benzo_a_pyrene,Darfo (aria),221,BS,Darfo Boario Terme,2008-04-17,NA,45.87460210989037,10.17735680898138,SB
10109,698,Sulfur_dioxide,Ceneselli,13,RO,Ceneselli,2006-11-28,NA,45.01325676849334,11.372344948058235,NA
6647,504,PM_tot,Sesto S.Giovanni,139,MI,Sesto San Giovanni,1980-09-18,2002-09-01,45.53476576509224,9.236107923411636,UT
5619,544,Sulfur_dioxide,Cormano,153,MI,Cormano,1994-10-26,NA,45.551041944372415,9.162613653151322,UB
6690,642,NOx,Pavia - via Folperti,77,PV,Pavia,2002-06-01,NA,45.19467609907785,9.164638300630086,UB
5650,503,Sulfur_dioxide,Milano - P.zza  Zavattari,122,MI,Milano,1968-01-12,2010-12-14,45.47606340509791,9.141786267186658,NA
5533,530,NO2,Agrate,162,MB,Agrate Brianza,1990-02-13,2018-07-30,45.57578475922807,9.354105650819204,NA
5530,527,NO2,Castano Primo,175,MI,Castano Primo,1990-01-01,2017-01-01,45.54594268367404,8.776104584370271,NA
5812,606,CO,S.Giuliano Milanese,97,MI,San Giuliano Milanese,2000-01-13,NA,45.39619462552717,9.282700075557845,UT
6954,661,PM10,Rezzato,147,BS,Rezzato,1997-01-27,NA,45.51570829484459,10.336240422996532,SI
5516,513,NO2,Trezzo d`Adda,199,MI,Trezzo sull'Adda,2001-02-22,2017-01-01,45.61369175877737,9.50812248390592,SB
10165,703,NOx,Schivenoglia,NA,MN,Schivenoglia,2006-11-29,NA,45.016877820755425,11.07609463264049,RB
6799,654,Sulfur_dioxide,Sarezzo - via Minelli,269,BS,Sarezzo,1990-02-18,2007-01-30,45.64962671224069,10.205090218837002,UB
12028,642,PM10,Pavia - via Folperti,77,PV,Pavia,2011-02-04,NA,45.19467609907785,9.164638300630086,UB
6803,654,NOx,Sarezzo - via Minelli,269,BS,Sarezzo,1990-01-01,NA,45.64962671224069,10.205090218837002,UB
9997,682,Ozone,Ferrera Erbognone - ENI,88,PV,Ferrera Erbognone,2006-01-21,NA,45.11350314482957,8.874064848882607,RI
5757,590,PM10,Ponte S.Pietro,225,BG,Ponte San Pietro,2000-01-28,2002-10-17,45.696081938463465,9.587784018279269,NA
6633,530,PM_tot,Agrate,162,MB,Agrate Brianza,1990-02-21,2007-01-03,45.57578475922807,9.354105650819204,NA
10516,671,Sulfur_dioxide,Mantova - Tridolino,22,MN,Mantova,2010-03-30,2017-01-01,45.153319585785574,10.859263911962309,RI
5659,589,Sulfur_dioxide,Nembro $,309,BG,Nembro,1991-06-05,2003-05-31,45.743036830343144,9.760535572770022,NA
10406,1263,NOx,Villa di Serio,280,BG,Villa di Serio,2008-10-08,2018-07-30,45.73589144532835,9.738394788043442,NA
10583,1274,NOx,Perledo,212,LC,Perledo,2010-09-01,NA,46.01582830438376,9.286409208680807,RB
6955,663,PM10,Mantova - via Ariosto,18,MN,Mantova,2003-01-01,NA,45.14526012578896,10.80332595007927,UI
6962,595,PM10,Filago - via Don Milani,190,BG,Filago,2004-10-14,NA,45.63386450908066,9.556084255790864,UB
12695,1264,Lead,Sondrio - via Paribelli,290,SO,Sondrio,2008-04-01,NA,46.167852440665115,9.879209924469903,UB
9965,609,PM10,Casirate d`Adda,108,BG,Casirate d'Adda,2006-01-01,NA,45.49822713394494,9.556232262351761,RB
5655,557,Sulfur_dioxide,Lonate Pozzolo,204,VA,Lonate Pozzolo,1996-12-05,2005-08-17,45.59402351710858,8.7407965765392,NA
10171,703,Ozone,Schivenoglia,NA,MN,Schivenoglia,2006-11-29,NA,45.016877820755425,11.07609463264049,RB
5959,629,Sulfur_dioxide,Crema - via XI febbraio,79,CR,Crema,1992-11-01,NA,45.366309078194334,9.703945513613167,SB
6814,656,Sulfur_dioxide,Gambara,47,BS,Gambara,1990-02-16,2012-01-04,45.24954362474624,10.299119496064078,RB
12665,681,Benzo_a_pyrene,Moggio,1194,LC,Moggio,2008-06-15,NA,45.91278752030292,9.497538167653424,RB
5579,576,NO2,Merate,279,LC,Merate,1991-02-18,NA,45.69795198970243,9.406190938686596,UT
10117,699,NOx,Magnacavallo,11,MN,Magnacavallo,2006-11-29,NA,45.00514152134826,11.178388087213916,NA
6415,628,NOx,Cremona - p.zza Libertà $,61,CR,Cremona,2002-01-01,2006-04-04,45.13737896273478,10.032359066275932,NA
10020,685,Sulfur_dioxide,Calusco d' Adda,273,BG,Calusco d'Adda,2006-06-30,NA,45.69042907854514,9.484260927647789,SB
9875,674,NOx,Monza - via Machiavelli,162,MB,Monza,2005-10-21,NA,45.58026348442243,9.273573092713274,UB
5851,559,CO,Somma Lombardo - MXP,210,VA,Somma Lombardo,2000-03-20,2012-01-04,45.649537127292405,8.71269145828479,NA
5594,591,NO2,Seriate,256,BG,Seriate,1991-10-31,2018-07-30,45.68635606439914,9.714947917631529,NA
30129,631,Ammonia,Piadena,30,CR,Piadena,2013-07-09,2014-03-27,45.12979322367744,10.379831668522419,NA
17297,583,Ozone,Bergamo - via Meucci,249,BG,Bergamo,2013-01-24,NA,45.69103740547214,9.643650579461385,UB
12574,693,PM2.5,Sannazzaro de' Burgondi - AGIP,85,PV,Sannazzaro de' Burgondi,2013-01-07,NA,45.10276627684137,8.90417452771467,UI
5546,543,NO2,Vimercate,194,MB,Vimercate,1994-12-23,2018-07-30,45.614920870442226,9.368396161785157,NA
10043,687,PM10,Ferno,215,VA,Ferno,2006-11-29,NA,45.61924377994763,8.756970445453431,UB
5613,536,Sulfur_dioxide,Arese,157,MI,Arese,1991-05-29,2003-10-22,45.543433254501636,9.080725831284644,NA
5811,598,CO,S.Rocco al Porto,50,LO,San Rocco al Porto,2002-02-25,NA,45.081986696978625,9.70078817718398,SB
17295,558,Ozone,Busto Arsizio - Accam,206,VA,Busto Arsizio,2013-01-26,NA,45.582894292717725,8.842165456706075,SB
10330,708,PM_tot,Parona,112,PV,Parona,2007-08-08,2010-10-20,45.281935610357905,8.754334594539825,UI
5506,503,NO2,Milano - P.zza  Zavattari,122,MI,Milano,1980-09-18,2018-07-30,45.47606340509791,9.141786267186658,NA
6622,573,PM_tot,Colico,229,LC,Colico,1991-02-17,2002-10-03,46.1381409051264,9.384687247651794,SB
5620,525,Sulfur_dioxide,Corsico,119,MI,Corsico,1983-06-06,2006-11-04,45.43610851009912,9.097410841871474,NA
9969,679,NO2,Valmadrera,247,LC,Valmadrera,2006-02-15,NA,45.842207261022544,9.351658166127958,SB
10098,697,Sulfur_dioxide,Borgofranco - loc. Bonizzo,14,MN,Borgofranco sul Po,2006-11-29,NA,45.04650153816735,11.18093581912755,SB
5651,501,Sulfur_dioxide,Milano - viale Marche,129,MI,Milano,1973-11-07,1999-04-05,45.49631644365102,9.190933555313624,UT
12622,542,Lead,Meda,222,MB,Meda,2008-04-18,NA,45.66176219189168,9.156643984551597,UT
5665,595,Sulfur_dioxide,Filago - via Don Milani,190,BG,Filago,1991-12-07,NA,45.63386450908066,9.556084255790864,UB
6324,531,NOx,Limito,114,MI,Pioltello,1989-05-12,NA,45.48363035323249,9.327360033215145,UB
9832,671,PM10,Mantova - Tridolino,22,MN,Mantova,2004-12-28,2017-01-01,45.153319585785574,10.859263911962309,RI
10280,705,Sulfur_dioxide,Milano - Pascal Città Studi,122,MI,Milano,2007-06-16,NA,45.47899606168744,9.235491038497502,UB
5768,562,PM10,Mariano Comense,256,CO,Mariano Comense,1999-01-01,2003-08-27,45.68865731381679,9.180657768638271,NA
6276,606,NOx,S.Giuliano Milanese,97,MI,San Giuliano Milanese,2000-01-13,NA,45.39619462552717,9.282700075557845,UT
10155,702,NO2,Pieve di Coriano,16,MN,Pieve di Coriano,2006-11-29,NA,45.03394281418463,11.116918109540054,NA
12688,633,Benzo_a_pyrene,Soresina,70,CR,Soresina,2008-04-02,NA,45.28397715446764,9.863398419993635,ST
6877,664,NO2,Mantova - p.zza Gramsci,18,MN,Mantova,2004-06-08,NA,45.151743379576594,10.78140770009565,UT
5841,503,CO,Milano - P.zza  Zavattari,122,MI,Milano,1989-04-05,2018-07-30,45.47606340509791,9.141786267186658,NA
5705,570,Sulfur_dioxide,Tirano - viale Italia,439,SO,Tirano,1993-11-01,2009-01-01,46.21774621439411,10.156470232146322,NA
6292,527,NOx,Castano Primo,175,MI,Castano Primo,1990-01-01,2017-01-01,45.54594268367404,8.776104584370271,NA
9805,671,NO2,Mantova - Tridolino,22,MN,Mantova,2004-12-31,2017-01-01,45.153319585785574,10.859263911962309,RI
5675,565,Sulfur_dioxide,Cantù - via Meucci,369,CO,Cantù,1993-10-01,1997-08-05,45.73083672267427,9.125734327022926,SB
5964,632,Sulfur_dioxide,Pizzighettone - via Formigara,45,CR,Pizzighettone,1996-05-17,2012-01-04,45.18168712150796,9.793385935673802,NA
6720,644,NOx,Vigevano - viale  Petrarca,107,PV,Vigevano,2004-01-24,2012-02-02,45.326401500542325,8.860310253579987,UB
12662,681,Arsenic,Moggio,1194,LC,Moggio,2008-06-14,NA,45.91278752030292,9.497538167653424,RB
6789,653,CO,Brescia - via Ziziola,125,BS,Brescia,1997-10-15,2018-07-30,45.51455919056731,10.218463502801265,NA
6948,644,PM10,Vigevano - viale  Petrarca,107,PV,Vigevano,2002-06-06,2013-09-19,45.326401500542325,8.860310253579987,UB
6840,658,NOx,Manerbio - via Solferino,66,BS,Manerbio,1992-08-28,2015-03-03,45.34995949312804,10.144752235947312,NA
5535,532,NO2,Cuggiono,156,MI,Cuggiono,1990-01-01,2017-01-01,45.5014842949991,8.804453762398397,NA
10278,705,NOx,Milano - Pascal Città Studi,122,MI,Milano,2007-06-16,NA,45.47899606168744,9.235491038497502,UB
12608,546,Arsenic,Magenta,137,MI,Magenta,2008-04-15,NA,45.462415791106615,8.880210433125571,UB
6884,665,Ozone,Viadana,37,MN,Viadana,2003-10-01,NA,44.92469404955067,10.517502067117825,NA
9772,600,Benzene,Lodi - viale Vignati,80,LO,Lodi,2005-04-23,NA,45.30601298752377,9.48526286320174,UT
5628,539,Sulfur_dioxide,Milano - viale Liguria,115,MI,Milano,1991-08-14,1999-05-05,45.443857653564926,9.167944501742676,UT
5823,539,CO,Milano - viale Liguria,115,MI,Milano,1991-10-20,NA,45.443857653564926,9.167944501742676,UT
5609,606,NO2,S.Giuliano Milanese,97,MI,San Giuliano Milanese,2000-01-13,NA,45.39619462552717,9.282700075557845,UT
6886,666,Sulfur_dioxide,Porto Mantovano,29,MN,Porto Mantovano,2003-09-26,2012-01-04,45.19554009017032,10.79726229869026,NA
9831,670,PM10,Mantova - S.Agnese,22,MN,Mantova,2004-12-30,NA,45.16056833010576,10.79556411370788,UB
6872,663,Sulfur_dioxide,Mantova - via Ariosto,18,MN,Mantova,2003-01-01,NA,45.14526012578896,10.80332595007927,UI
6864,661,NOx,Rezzato,147,BS,Rezzato,1992-08-05,NA,45.51570829484459,10.336240422996532,SI
6784,652,NOx,Brescia - via Turati,154,BS,Brescia,1999-10-01,NA,45.539529434955995,10.231785907477223,UT
6240,566,NOx,Olgiate Comasco - via Roma $,404,CO,Olgiate Comasco,1995-02-01,2010-04-15,45.78389725453634,8.966397886811311,NA
6917,558,PM10,Busto Arsizio - Accam,206,VA,Busto Arsizio,1999-01-20,NA,45.582894292717725,8.842165456706075,SB
6910,542,PM10,Meda,222,MB,Meda,1998-02-06,NA,45.66176219189168,9.156643984551597,UT
5727,543,Ozone,Vimercate,194,MB,Vimercate,1995-01-11,2018-01-01,45.614920870442226,9.368396161785157,NA
6304,532,NOx,Cuggiono,156,MI,Cuggiono,1990-01-01,2017-01-01,45.5014842949991,8.804453762398397,NA
5962,630,Sulfur_dioxide,Crema - via Indipendenza $,78,CR,Crema,1992-11-01,2003-10-02,45.369413822391465,9.677268708195667,NA
6360,513,NOx,Trezzo d`Adda,199,MI,Trezzo sull'Adda,2001-02-22,2017-01-01,45.61369175877737,9.50812248390592,SB
6637,502,PM_tot,Milano - via Juvara,122,MI,Milano,1976-10-26,1998-02-12,45.473225708577175,9.222315138737468,NA
6220,584,NOx,Bergamo - via Garibaldi,249,BG,Bergamo,1994-06-21,NA,45.69568034432694,9.66124914606551,UT
12593,669,Benzo_a_pyrene,Brescia - Villaggio Sereno,70,BS,Brescia,2008-04-18,NA,45.513038818653754,10.19194188877931,UB
10339,629,PM10,Crema - via XI febbraio,79,CR,Crema,2007-09-25,NA,45.366309078194334,9.703945513613167,SB
12696,609,Nikel,Casirate d`Adda,108,BG,Casirate d'Adda,2008-04-24,NA,45.49822713394494,9.556232262351761,RB
5704,569,Sulfur_dioxide,Sondrio - via Mazzini,307,SO,Sondrio,1993-11-01,NA,46.16796681227828,9.87014407497457,UT
12570,561,PM2.5,Como - viale Cattaneo,202,CO,Como,2011-09-23,NA,45.81504286011291,9.06697137484454,UT
6883,665,CO,Viadana,37,MN,Viadana,2003-10-26,2011-12-29,44.92469404955067,10.517502067117825,NA
6312,502,NOx,Milano - via Juvara,122,MI,Milano,1977-05-06,2007-06-11,45.473225708577175,9.222315138737468,NA
5801,562,CO,Mariano Comense,256,CO,Mariano Comense,1991-12-18,2012-01-04,45.68865731381679,9.180657768638271,NA
5797,565,CO,Cantù - via Meucci,369,CO,Cantù,1993-10-04,NA,45.73083672267427,9.125734327022926,SB
12668,703,Arsenic,Schivenoglia,NA,MN,Schivenoglia,2008-02-23,NA,45.016877820755425,11.07609463264049,RB
6350,516,NOx,Robecchetto,135,MI,Robecchetto con Induno,1992-12-07,2017-01-01,45.51782219008838,8.766562109244964,SB
9855,672,NOx,Cornale (Voghera Energia),74,PV,Cornale,2005-07-29,NA,45.04007657202963,8.914144599002409,RB
9930,677,NOx,Cremona - Via Fatebenefratelli,43,CR,Cremona,2006-04-11,NA,45.14254063221695,10.043836158369393,UB
5827,501,CO,Milano - viale Marche,129,MI,Milano,1989-04-05,NA,45.49631644365102,9.190933555313624,UT
12591,669,Lead,Brescia - Villaggio Sereno,70,BS,Brescia,2008-04-01,NA,45.513038818653754,10.19194188877931,UB
10106,698,NOx,Ceneselli,13,RO,Ceneselli,2006-11-29,2017-01-01,45.01325676849334,11.372344948058235,NA
5958,629,NO2,Crema - via XI febbraio,79,CR,Crema,1992-11-01,NA,45.366309078194334,9.703945513613167,SB
20428,683,PM10,Cassano d'Adda 2 - Via Milano,133,MI,Cassano d'Adda,2017-12-19,NA,45.52647254585104,9.515980483627096,UT
10070,693,Sulfur_dioxide,Sannazzaro de' Burgondi - AGIP,85,PV,Sannazzaro de' Burgondi,2007-01-01,NA,45.10276627684137,8.90417452771467,UI
6366,528,NOx,Milano - Verziere,116,MI,Milano,1988-11-24,NA,45.463346740666545,9.195324807668857,UT
6959,565,PM10,Cantù - via Meucci,369,CO,Cantù,1999-01-01,NA,45.73083672267427,9.125734327022926,SB
20427,683,Sulfur_dioxide,Cassano d'Adda 2 - Via Milano,133,MI,Cassano d'Adda,2017-12-20,NA,45.52647254585104,9.515980483627096,UT
10580,627,Sulfur_dioxide,Cremona - p.zza Cadorna,39,CR,Cremona,2010-09-01,NA,45.13194691285173,10.015741513336042,UT
30163,669,NO2,Brescia - Villaggio Sereno,70,BS,Brescia,2013-12-13,NA,45.513038818653754,10.19194188877931,UB
5592,589,NO2,Nembro $,309,BG,Nembro,1991-06-07,2007-03-14,45.743036830343144,9.760535572770022,NA
6818,656,Ozone,Gambara,47,BS,Gambara,1990-02-15,NA,45.24954362474624,10.299119496064078,RB
10477,1267,CO,Turano,65,LO,Turano Lodigiano,2009-08-03,2017-03-31,45.25028308918456,9.62125819274314,NA
9807,671,NOx,Mantova - Tridolino,22,MN,Mantova,2006-04-23,2017-01-01,45.153319585785574,10.859263911962309,RI
12609,546,Cadmium,Magenta,137,MI,Magenta,2008-04-15,NA,45.462415791106615,8.880210433125571,UB
12602,655,Arsenic,Darfo (aria),221,BS,Darfo Boario Terme,2008-04-18,NA,45.87460210989037,10.17735680898138,SB
20020,705,Ammonia,Milano - Pascal Città Studi,122,MI,Milano,2007-03-30,NA,45.47899606168744,9.235491038497502,UB
6625,576,PM_tot,Merate,279,LC,Merate,1991-02-17,1999-11-01,45.69795198970243,9.406190938686596,UT
9897,609,NO2,Casirate d`Adda,108,BG,Casirate d'Adda,2005-11-10,NA,45.49822713394494,9.556232262351761,RB
9968,679,NOx,Valmadrera,247,LC,Valmadrera,2006-02-16,NA,45.842207261022544,9.351658166127958,SB
6926,572,PM10,Morbegno - via Cortivacci,262,SO,Morbegno,1999-12-14,NA,46.132282960003735,9.566179893984474,UB
6791,653,Ozone,Brescia - via Ziziola,125,BS,Brescia,1997-10-15,2018-01-01,45.51455919056731,10.218463502801265,NA
6314,535,NOx,Lacchiarella,97,MI,Lacchiarella,1999-03-19,2018-07-30,45.32451741284727,9.134517264199278,NA
12686,633,Cadmium,Soresina,70,CR,Soresina,2008-04-01,NA,45.28397715446764,9.863398419993635,ST
10433,1264,Sulfur_dioxide,Sondrio - via Paribelli,290,SO,Sondrio,2009-01-04,2012-01-04,46.167852440665115,9.879209924469903,UB
17086,569,Lead,Sondrio - via Mazzini,307,SO,Sondrio,2008-04-01,2011-12-26,46.16796681227828,9.87014407497457,UT
6390,556,NOx,Gallarate - P.zza S.Lorenzo,240,VA,Gallarate,1991-06-26,2018-07-30,45.65745982503037,8.797570832831466,NA
12600,609,Benzo_a_pyrene,Casirate d`Adda,108,BG,Casirate d'Adda,2008-04-24,NA,45.49822713394494,9.556232262351761,RB
6921,564,PM10,Erba - via Battisti,279,CO,Erba,2009-06-13,NA,45.808573806922965,9.221779204488435,UB
6951,649,PM10,Brescia - Broletto,149,BS,Brescia,2000-09-23,NA,45.540057846971386,10.222818449274216,UT
10131,700,NO2,Melara,12,RO,Melara,2006-11-28,NA,45.063214361613305,11.20921074969938,NA
5800,563,CO,Fino Mornasco,304,CO,Fino Mornasco,1991-12-20,2012-01-04,45.74804440954574,9.042592844183936,NA
12693,560,Lead,Varese - via Copelli,383,VA,Varese,2008-04-01,NA,45.816973233263674,8.820240707158211,UT
6230,565,NOx,Cantù - via Meucci,369,CO,Cantù,1994-07-01,NA,45.73083672267427,9.125734327022926,SB
12603,655,Cadmium,Darfo (aria),221,BS,Darfo Boario Terme,2008-04-18,NA,45.87460210989037,10.17735680898138,SB
5948,625,NO2,Casalmaggiore - via Volta $,23,CR,Casalmaggiore,1996-05-19,2007-02-21,44.980660403835316,10.427376916159512,NA
6005,627,Benzene,Cremona - p.zza Cadorna,39,CR,Cremona,2002-05-16,NA,45.13194691285173,10.015741513336042,UT
6857,660,Ozone,Ospitaletto,155,BS,Ospitaletto,2000-06-29,2004-02-25,45.55325139975436,10.084916143968398,NA
5647,528,Sulfur_dioxide,Milano - Verziere,116,MI,Milano,1988-12-07,2004-03-01,45.463346740666545,9.195324807668857,UT
6856,660,NOx,Ospitaletto,155,BS,Ospitaletto,1990-01-01,2018-07-30,45.55325139975436,10.084916143968398,NA
20104,592,PM2.5,Treviglio,191,BG,Treviglio,2015-03-01,NA,45.51933498138716,9.592009994888425,UT
5845,569,CO,Sondrio - via Mazzini,307,SO,Sondrio,1993-11-01,NA,46.16796681227828,9.87014407497457,UT
5649,543,Sulfur_dioxide,Vimercate,194,MB,Vimercate,1994-12-23,2003-10-16,45.614920870442226,9.368396161785157,NA
6400,560,NOx,Varese - via Copelli,383,VA,Varese,2003-08-07,NA,45.816973233263674,8.820240707158211,UT
6613,583,PM_tot,Bergamo - via Meucci,249,BG,Bergamo,2004-06-22,2000-07-02,45.69103740547214,9.643650579461385,UB
5850,557,CO,Lonate Pozzolo,204,VA,Lonate Pozzolo,1996-12-05,2012-01-04,45.59402351710858,8.7407965765392,NA
10301,574,Benzene,Lecco - Via Amendola,214,LC,Lecco,2006-11-07,NA,45.850191194578535,9.395577066893223,UT
6909,536,PM10,Arese,157,MI,Arese,2002-01-18,2018-07-30,45.543433254501636,9.080725831284644,NA
6294,512,NOx,Carate Brianza,250,MB,Carate Brianza,1994-10-27,2018-07-30,45.672024734078455,9.234591661788048,NA
9857,673,NO2,Voghera - via Pozzoni,90,PV,Voghera,2005-07-28,NA,44.99954598914026,9.008437381815693,UB
6793,653,PM_tot,Brescia - via Ziziola,125,BS,Brescia,2005-07-19,2013-11-17,45.51455919056731,10.218463502801265,NA
5532,529,NO2,Cinisello Balsamo,149,MI,Cinisello Balsamo,1988-11-24,NA,45.55232578741208,9.227764233272634,UT
20443,681,NO2,Moggio,1194,LC,Moggio,2007-03-16,NA,45.91278752030292,9.497538167653424,RB
10286,706,NO2,Lecco - Via Sora,272,LC,Lecco,2007-06-27,NA,45.86374884127965,9.399950344681852,UB
5658,552,Sulfur_dioxide,Varese - Vidoletti,425,VA,Varese,1991-12-23,NA,45.83690077655548,8.80392612667495,UB
5715,505,Ozone,Legnano,199,MI,Legnano,1990-01-11,2018-01-01,45.596133932132915,8.91881399306327,NA
20358,504,PM2.5,Sesto S.Giovanni,139,MI,Sesto San Giovanni,2017-01-01,NA,45.53476576509224,9.236107923411636,UT
6722,644,PM_tot,Vigevano - viale  Petrarca,107,PV,Vigevano,2002-05-29,2002-06-05,45.326401500542325,8.860310253579987,UB
5570,567,NO2,Chiavenna,333,SO,Chiavenna,1993-10-28,2018-07-30,46.320803497826546,9.395590913257395,NA
6881,665,Sulfur_dioxide,Viadana,37,MN,Viadana,2003-10-03,2011-12-29,44.92469404955067,10.517502067117825,NA
5520,517,NO2,Turbigo,141,MI,Turbigo,1990-01-11,NA,45.52655086994247,8.736496578379215,UB
10584,1274,Ozone,Perledo,212,LC,Perledo,2010-09-01,NA,46.01582830438376,9.286409208680807,RB
12640,548,Lead,Milano - via Senato,118,MI,Milano,2008-07-09,NA,45.470499014097,9.197460360112531,UT
5662,592,Sulfur_dioxide,Treviglio,191,BG,Treviglio,1991-06-02,NA,45.51933498138716,9.592009994888425,UT
6382,569,NOx,Sondrio - via Mazzini,307,SO,Sondrio,1993-11-01,NA,46.16796681227828,9.87014407497457,UT
10273,705,PM10,Milano - Pascal Città Studi,122,MI,Milano,2007-04-21,NA,45.47899606168744,9.235491038497502,UB
17085,569,Cadmium,Sondrio - via Mazzini,307,SO,Sondrio,2008-04-01,2011-12-26,46.16796681227828,9.87014407497457,UT
12583,1303,Ammonia,Cremona - via Gerre Borghi,36,CR,Cremona,2012-01-01,2017-01-01,45.10953938027215,10.069230734956498,RB
5515,512,NO2,Carate Brianza,250,MB,Carate Brianza,1994-10-27,2018-07-30,45.672024734078455,9.234591661788048,NA
5825,531,CO,Limito,114,MI,Pioltello,1994-11-11,NA,45.48363035323249,9.327360033215145,UB
10323,707,NOx,Mortara,108,PV,Mortara,2007-10-04,2017-01-01,45.254728720788826,8.74415437971093,UB
5822,505,CO,Legnano,199,MI,Legnano,1990-01-19,2011-07-27,45.596133932132915,8.91881399306327,NA
30166,652,Benzene,Brescia - via Turati,154,BS,Brescia,2016-01-01,NA,45.539529434955995,10.231785907477223,UT
5854,552,CO,Varese - Vidoletti,425,VA,Varese,1991-12-23,2012-01-04,45.83690077655548,8.80392612667495,UB
5604,601,NO2,Montanaso,84,LO,Montanaso Lombardo,2000-01-13,2017-01-01,45.33613100905199,9.45255388178171,RI
6328,501,NOx,Milano - viale Marche,129,MI,Milano,1980-09-18,NA,45.49631644365102,9.190933555313624,UT
9976,679,PM10,Valmadrera,247,LC,Valmadrera,2006-02-11,NA,45.842207261022544,9.351658166127958,SB
6925,571,PM10,Bormio,1225,SO,Bormio,2003-04-18,NA,46.46952397132585,10.375432759159036,UB
6394,559,NOx,Somma Lombardo - MXP,210,VA,Somma Lombardo,2000-03-21,2018-07-30,45.649537127292405,8.71269145828479,NA
6318,505,NOx,Legnano,199,MI,Legnano,1990-01-10,2018-07-30,45.596133932132915,8.91881399306327,NA
6635,508,PM_tot,Cassano d`Adda - Via di Vona,133,MI,Cassano d'Adda,1984-12-10,2005-11-14,45.52000867032165,9.512220968943545,NA
6274,598,NOx,S.Rocco al Porto,50,LO,San Rocco al Porto,2002-01-24,NA,45.081986696978625,9.70078817718398,SB
17127,501,Benzene,Milano - viale Marche,129,MI,Milano,2012-09-13,NA,45.49631644365102,9.190933555313624,UT
6412,627,NOx,Cremona - p.zza Cadorna,39,CR,Cremona,2002-01-01,NA,45.13194691285173,10.015741513336042,UT
6888,666,Ozone,Porto Mantovano,29,MN,Porto Mantovano,2004-06-01,2018-01-01,45.19554009017032,10.79726229869026,NA
5507,504,NO2,Sesto S.Giovanni,139,MI,Sesto San Giovanni,1980-12-18,NA,45.53476576509224,9.236107923411636,UT
5672,586,Sulfur_dioxide,Costa Volpino,192,BG,Costa Volpino,1993-07-26,2003-06-03,45.82715793876258,10.09706172418631,NA
5630,531,Sulfur_dioxide,Limito,114,MI,Pioltello,1989-05-07,NA,45.48363035323249,9.327360033215145,UB
10176,703,PM2.5,Schivenoglia,NA,MN,Schivenoglia,2006-12-13,NA,45.016877820755425,11.07609463264049,RB
10484,1266,PM10,Bertonico,65,LO,Bertonico,2009-08-03,NA,45.23349364130374,9.666250375296032,RB
10331,709,NO2,Vigevano - via Valletta,109,PV,Vigevano,2007-08-08,NA,45.303607869655714,8.844804609965438,UB
6200,590,NOx,Ponte S.Pietro,225,BG,Ponte San Pietro,1990-07-04,2013-05-26,45.696081938463465,9.587784018279269,NA
10474,1267,Benzene,Turano,65,LO,Turano Lodigiano,2010-01-01,2017-03-31,45.25028308918456,9.62125819274314,NA
6210,594,NOx,Bergamo - via Goisis,290,BG,Bergamo,1996-09-14,2018-07-30,45.715912469852206,9.688958745309764,NA
10352,517,PM10,Turbigo,141,MI,Turbigo,2008-01-01,NA,45.52655086994247,8.736496578379215,UB
12597,609,Cadmium,Casirate d`Adda,108,BG,Casirate d'Adda,2008-04-24,NA,45.49822713394494,9.556232262351761,RB
12667,703,Nikel,Schivenoglia,NA,MN,Schivenoglia,2008-02-23,NA,45.016877820755425,11.07609463264049,RB
5717,531,Ozone,Limito,114,MI,Pioltello,1989-05-13,NA,45.48363035323249,9.327360033215145,UB
10083,695,PM10,Ponti sul Mincio,113,MN,Ponti sul Mincio,2006-12-20,NA,45.41277169168634,10.683357343786835,SB
12669,703,Cadmium,Schivenoglia,NA,MN,Schivenoglia,2008-02-23,NA,45.016877820755425,11.07609463264049,RB
6348,509,NOx,Rivolta d` Adda - via Beccaria,101,CR,Rivolta d'Adda,1991-01-12,2018-01-01,45.46855301694732,9.511345333837518,NA
6945,633,PM10,Soresina,70,CR,Soresina,2000-02-04,NA,45.28397715446764,9.863398419993635,ST
6675,567,PM_tot,Chiavenna,333,SO,Chiavenna,1993-10-27,2002-10-02,46.320803497826546,9.395590913257395,NA
10036,673,Benzene,Voghera - via Pozzoni,90,PV,Voghera,2005-07-28,NA,44.99954598914026,9.008437381815693,UB
5534,531,NO2,Limito,114,MI,Pioltello,1989-05-23,NA,45.48363035323249,9.327360033215145,UB
6889,667,NO2,Marmirolo - Bosco Fontana,22,MN,Marmirolo,2003-01-01,2018-07-30,45.20817903938493,10.74263625117323,NA
6689,642,CO,Pavia - via Folperti,77,PV,Pavia,2002-06-01,2012-01-04,45.19467609907785,9.164638300630086,UB
5691,608,Sulfur_dioxide,Codogno - via Trento,59,LO,Codogno,2000-01-13,NA,45.15937280234111,9.69814824935254,UT
6372,503,NOx,Milano - P.zza  Zavattari,122,MI,Milano,1980-09-18,2018-07-30,45.47606340509791,9.141786267186658,NA
5625,502,Sulfur_dioxide,Milano - via Juvara,122,MI,Milano,1968-01-12,2007-07-18,45.473225708577175,9.222315138737468,NA
17284,1374,Ammonia,Monza Parco,181,MB,Monza,2013-02-08,NA,45.60123219955139,9.27507265782848,SB
10438,1264,PM2.5,Sondrio - via Paribelli,290,SO,Sondrio,2008-11-11,NA,46.167852440665115,9.879209924469903,UB
10285,706,NOx,Lecco - Via Sora,272,LC,Lecco,2007-06-28,NA,45.86374884127965,9.399950344681852,UB
5688,578,Sulfur_dioxide,Varenna $,220,LC,Varenna,1991-02-17,2001-03-20,46.00942283474235,9.285304059583972,NA
10329,708,NOx,Parona,112,PV,Parona,2007-10-01,NA,45.281935610357905,8.754334594539825,UI
6386,558,NOx,Busto Arsizio - Accam,206,VA,Busto Arsizio,1998-12-06,NA,45.582894292717725,8.842165456706075,SB
5676,561,Sulfur_dioxide,Como - viale Cattaneo,202,CO,Como,1991-02-17,NA,45.81504286011291,9.06697137484454,UT
6224,586,NOx,Costa Volpino,192,BG,Costa Volpino,1993-07-26,2018-07-30,45.82715793876258,10.09706172418631,NA
10437,1264,Ozone,Sondrio - via Paribelli,290,SO,Sondrio,2009-01-04,NA,46.167852440665115,9.879209924469903,UB
5573,570,NO2,Tirano - viale Italia,439,SO,Tirano,1993-11-01,2018-07-30,46.21774621439411,10.156470232146322,NA
6402,552,NOx,Varese - Vidoletti,425,VA,Varese,1991-12-23,NA,45.83690077655548,8.80392612667495,UB
5611,608,NO2,Codogno - via Trento,59,LO,Codogno,2000-01-13,NA,45.15937280234111,9.69814824935254,UT
5631,546,Sulfur_dioxide,Magenta,137,MI,Magenta,1995-04-22,NA,45.462415791106615,8.880210433125571,UB
5952,626,Ozone,Corte de Cortesi,57,CR,Corte de' Cortesi con Cignone,1996-05-17,NA,45.27848755478839,10.006202391204335,RB
5623,610,Sulfur_dioxide,Groppello d`Adda $,141,MI,Cassano d'Adda,1980-09-18,2005-10-27,45.54735712557429,9.482556888751144,NA
6226,587,NOx,Casnigo - via Europa $,514,BG,Casnigo,1989-11-08,2005-05-05,45.81463898053286,9.867700614310943,NA
12620,542,Arsenic,Meda,222,MB,Meda,2008-04-18,NA,45.66176219189168,9.156643984551597,UT
9996,682,NOx,Ferrera Erbognone - ENI,88,PV,Ferrera Erbognone,2006-01-21,NA,45.11350314482957,8.874064848882607,RI
10123,699,Ozone,Magnacavallo,11,MN,Magnacavallo,2006-11-29,NA,45.00514152134826,11.178388087213916,NA
6630,602,PM_tot,Melegnano,83,MI,Melegnano,2000-01-13,2011-01-01,45.35428575070997,9.329243424113708,NA
6614,584,PM_tot,Bergamo - via Garibaldi,249,BG,Bergamo,1994-06-15,2005-10-21,45.69568034432694,9.66124914606551,UT
9984,669,PM2.5,Brescia - Villaggio Sereno,70,BS,Brescia,2006-06-06,NA,45.513038818653754,10.19194188877931,UB
6340,547,NOx,Milano - Parco Lambro,123,MI,Milano,1995-04-21,2018-07-30,45.499583690483405,9.247326889507654,NA
6646,514,PM_tot,Rho - via Statuto,152,MI,Rho,1991-10-11,1999-06-09,45.523425662003476,9.044599871111005,UB
9915,591,PM2.5,Seriate,256,BG,Seriate,2005-11-28,2018-07-30,45.68635606439914,9.714947917631529,NA
10501,655,PM10,Darfo (aria),221,BS,Darfo Boario Terme,2008-12-23,NA,45.87460210989037,10.17735680898138,SB
6617,587,PM_tot,Casnigo - via Europa $,514,BG,Casnigo,1989-11-08,2003-01-03,45.81463898053286,9.867700614310943,NA
9888,583,CO,Bergamo - via Meucci,249,BG,Bergamo,2005-03-11,NA,45.69103740547214,9.643650579461385,UB
30160,655,NO2,Darfo (aria),221,BS,Darfo Boario Terme,2013-12-13,NA,45.87460210989037,10.17735680898138,SB
10458,1266,NO2,Bertonico,65,LO,Bertonico,2009-08-03,NA,45.23349364130374,9.666250375296032,RB
12587,1303,NOx,Cremona - via Gerre Borghi,36,CR,Cremona,2011-10-14,2017-01-01,45.10953938027215,10.069230734956498,RB
5809,600,CO,Lodi - viale Vignati,80,LO,Lodi,1999-12-30,NA,45.30601298752377,9.48526286320174,UT
5646,517,Sulfur_dioxide,Turbigo,141,MI,Turbigo,1982-03-08,NA,45.52655086994247,8.736496578379215,UB
10149,701,PM10,Ostiglia - via Colombo,14,MN,Ostiglia,2007-01-01,2017-01-01,45.073311155731965,11.137034007299844,UB
6736,645,PM_tot,Voghera - viale Repubblica $,100,PV,Voghera,2002-03-07,2006-10-01,44.98586313155348,9.007128842722402,NA
6290,536,NOx,Arese,157,MI,Arese,1991-10-22,2018-07-30,45.543433254501636,9.080725831284644,NA
5789,591,CO,Seriate,256,BG,Seriate,1991-10-31,2011-09-13,45.68635606439914,9.714947917631529,NA
5769,566,PM10,Olgiate Comasco - via Roma $,404,CO,Olgiate Comasco,1995-02-01,2010-04-15,45.78389725453634,8.966397886811311,NA
20005,548,BlackCarbon,Milano - via Senato,118,MI,Milano,2013-09-30,NA,45.470499014097,9.197460360112531,UT
12017,1297,NO2,Spinadesco,48,CR,Spinadesco,2011-02-08,NA,45.150468869856816,9.930596472272326,RI
10119,699,NO2,Magnacavallo,11,MN,Magnacavallo,2006-11-29,NA,45.00514152134826,11.178388087213916,NA
6208,595,NOx,Filago - via Don Milani,190,BG,Filago,1992-03-06,NA,45.63386450908066,9.556084255790864,UB
6907,513,PM10,Trezzo d`Adda,199,MI,Trezzo sull'Adda,2001-04-03,2017-01-01,45.61369175877737,9.50812248390592,SB
5505,502,NO2,Milano - via Juvara,122,MI,Milano,1977-05-06,2007-06-11,45.473225708577175,9.222315138737468,NA
5732,573,Ozone,Colico,229,LC,Colico,1996-11-06,NA,46.1381409051264,9.384687247651794,SB
17083,569,Nikel,Sondrio - via Mazzini,307,SO,Sondrio,2008-04-01,2011-12-26,46.16796681227828,9.87014407497457,UT
10413,1263,PM10,Villa di Serio,280,BG,Villa di Serio,2008-10-07,2018-07-30,45.73589144532835,9.738394788043442,NA
12692,560,Cadmium,Varese - via Copelli,383,VA,Varese,2008-04-01,NA,45.816973233263674,8.820240707158211,UT
5683,573,Sulfur_dioxide,Colico,229,LC,Colico,1991-02-17,NA,46.1381409051264,9.384687247651794,SB
5957,628,Ozone,Cremona - p.zza Libertà $,61,CR,Cremona,1992-11-01,2006-04-04,45.13737896273478,10.032359066275932,NA
5792,594,CO,Bergamo - via Goisis,290,BG,Bergamo,1996-07-09,2018-07-30,45.715912469852206,9.688958745309764,NA
17084,569,Arsenic,Sondrio - via Mazzini,307,SO,Sondrio,2008-04-01,2011-12-26,46.16796681227828,9.87014407497457,UT
6734,645,NOx,Voghera - viale Repubblica $,100,PV,Voghera,2003-06-01,2012-10-15,44.98586313155348,9.007128842722402,NA
20442,681,NO,Moggio,1194,LC,Moggio,2007-03-16,NA,45.91278752030292,9.497538167653424,RB
6344,549,NOx,Milano - P.zza Abbiategrasso,111,MI,Milano,1995-05-20,2018-07-30,45.432197305733055,9.182138919080943,NA
6272,601,NOx,Montanaso,84,LO,Montanaso Lombardo,2000-01-13,2017-01-01,45.33613100905199,9.45255388178171,RI
12596,609,Arsenic,Casirate d`Adda,108,BG,Casirate d'Adda,2008-04-24,NA,45.49822713394494,9.556232262351761,RB
10166,703,Benzene,Schivenoglia,NA,MN,Schivenoglia,2006-11-29,NA,45.016877820755425,11.07609463264049,RB
6947,643,PM10,Pavia - p.zza Minerva,77,PV,Pavia,2002-06-06,NA,45.18632908049483,9.146666041286784,UT
6414,628,CO,Cremona - p.zza Libertà $,61,CR,Cremona,1994-11-14,2006-04-04,45.13737896273478,10.032359066275932,NA
5618,529,Sulfur_dioxide,Cinisello Balsamo,149,MI,Cinisello Balsamo,1988-08-10,1999-05-04,45.55232578741208,9.227764233272634,UT
9924,677,CO,Cremona - Via Fatebenefratelli,43,CR,Cremona,2006-04-08,NA,45.14254063221695,10.043836158369393,UB
6388,555,NOx,Busto Arsizio - via Magenta,222,VA,Busto Arsizio,1991-05-25,2018-07-30,45.610736040012604,8.850115752092071,NA
10483,1265,PM10,Lodi - S. Alberto,76,LO,Lodi,2009-08-03,NA,45.302783503095775,9.495273696926324,UB
5518,515,NO2,Pero,141,MI,Pero,1986-12-10,2018-07-30,45.509852266792514,9.089972020337333,NA
12639,548,Cadmium,Milano - via Senato,118,MI,Milano,2008-07-09,NA,45.470499014097,9.197460360112531,UT
10103,697,PM10,Borgofranco - loc. Bonizzo,14,MN,Borgofranco sul Po,2007-01-01,NA,45.04650153816735,11.18093581912755,SB
10343,708,PM10,Parona,112,PV,Parona,2007-09-28,NA,45.281935610357905,8.754334594539825,UI
5558,555,NO2,Busto Arsizio - via Magenta,222,VA,Busto Arsizio,1991-05-25,2018-07-30,45.610736040012604,8.850115752092071,NA
5963,631,NO2,Piadena,30,CR,Piadena,1992-11-30,2018-07-30,45.12979322367744,10.379831668522419,NA
6958,569,PM10,Sondrio - via Mazzini,307,SO,Sondrio,1999-12-08,NA,46.16796681227828,9.87014407497457,UT
5744,555,Ozone,Busto Arsizio - via Magenta,222,VA,Busto Arsizio,1991-05-25,2018-01-01,45.610736040012604,8.850115752092071,NA
6234,564,NOx,Erba - via Battisti,279,CO,Erba,2009-06-13,NA,45.808573806922965,9.221779204488435,UB
9900,508,Ozone,Cassano d`Adda - Via di Vona,133,MI,Cassano d'Adda,2005-12-01,2018-01-01,45.52000867032165,9.512220968943545,NA
6715,644,NO2,Vigevano - viale  Petrarca,107,PV,Vigevano,2004-01-24,2012-02-02,45.326401500542325,8.860310253579987,UB
5719,542,Ozone,Meda,222,MB,Meda,1995-11-01,NA,45.66176219189168,9.156643984551597,UT
5660,590,Sulfur_dioxide,Ponte S.Pietro,225,BG,Ponte San Pietro,1990-07-04,2006-06-20,45.696081938463465,9.587784018279269,NA
6384,570,NOx,Tirano - viale Italia,439,SO,Tirano,1993-11-01,2018-07-30,46.21774621439411,10.156470232146322,NA
10511,1269,CO,Dalmine - via Verdi,207,BG,Dalmine,2010-02-12,NA,45.64970251236247,9.601223338785262,UT
10457,1266,NOx,Bertonico,65,LO,Bertonico,2009-08-03,NA,45.23349364130374,9.666250375296032,RB
6296,508,NOx,Cassano d`Adda - Via di Vona,133,MI,Cassano d'Adda,1984-12-14,2018-01-01,45.52000867032165,9.512220968943545,NA
5836,538,CO,Settimo Milanese,132,MI,Settimo Milanese,1992-07-28,2011-07-14,45.480268785554635,9.056862031759728,NA
5607,604,NO2,Tavazzano,85,LO,Tavazzano con Villavesco,2000-01-13,NA,45.33036100181227,9.414644726627262,SB
5615,512,Sulfur_dioxide,Carate Brianza,250,MB,Carate Brianza,1994-10-27,2003-10-21,45.672024734078455,9.234591661788048,NA
5673,587,Sulfur_dioxide,Casnigo - via Europa $,514,BG,Casnigo,1989-11-08,2003-06-03,45.81463898053286,9.867700614310943,NA
5644,519,Sulfur_dioxide,Tribiano $,94,MI,Tribiano,1982-03-08,2006-03-29,45.40554635277101,9.370994067584798,NA
5738,607,Ozone,Abbadia Cerreto,64,LO,Abbadia Cerreto,2001-04-10,NA,45.309502269282255,9.585790416120414,NA
6252,576,NOx,Merate,279,LC,Merate,1991-01-01,NA,45.69795198970243,9.406190938686596,UT
6701,643,NO2,Pavia - p.zza Minerva,77,PV,Pavia,2002-03-03,NA,45.18632908049483,9.146666041286784,UT
6862,661,CO,Rezzato,147,BS,Rezzato,1999-11-24,NA,45.51570829484459,10.336240422996532,SI
6733,645,CO,Voghera - viale Repubblica $,100,PV,Voghera,2002-03-07,2012-01-04,44.98586313155348,9.007128842722402,NA
5637,549,Sulfur_dioxide,Milano - P.zza Abbiategrasso,111,MI,Milano,1995-05-20,2003-03-06,45.432197305733055,9.182138919080943,NA
6059,513,Benzene,Trezzo d`Adda,199,MI,Trezzo sull'Adda,2001-04-02,2002-02-19,45.61369175877737,9.50812248390592,SB
5517,514,NO2,Rho - via Statuto,152,MI,Rho,1991-10-03,NA,45.523425662003476,9.044599871111005,UB
5557,554,NO2,Saronno - via Santuario,212,VA,Saronno,1997-03-28,NA,45.626218960836006,9.04006309067821,UB
6885,666,NO2,Porto Mantovano,29,MN,Porto Mantovano,2003-09-26,2018-07-30,45.19554009017032,10.79726229869026,NA
9854,672,CO,Cornale (Voghera Energia),74,PV,Cornale,2005-07-29,NA,45.04007657202963,8.914144599002409,RB
6638,505,PM_tot,Legnano,199,MI,Legnano,1990-03-12,2010-11-11,45.596133932132915,8.91881399306327,NA
5550,547,NO2,Milano - Parco Lambro,123,MI,Milano,1995-04-21,2018-07-30,45.499583690483405,9.247326889507654,NA
6083,559,Benzene,Somma Lombardo - MXP,210,VA,Somma Lombardo,2000-03-21,2018-07-30,45.649537127292405,8.71269145828479,NA
6618,588,PM_tot,Tavernola Bergamasca,191,BG,Tavernola Bergamasca,1990-08-08,2004-03-30,45.71629992411727,10.044765999368437,SI
10005,684,NO2,Truccazzano,105,MI,Truccazzano,2006-02-17,2018-01-01,45.48455813667995,9.471348388974729,NA
12617,670,Benzo_a_pyrene,Mantova - S.Agnese,22,MN,Mantova,2008-02-19,NA,45.16056833010576,10.79556411370788,UB
6652,571,PM_tot,Bormio,1225,SO,Bormio,1993-11-01,2003-04-16,46.46952397132585,10.375432759159036,UB
10335,709,PM10,Vigevano - via Valletta,109,PV,Vigevano,2007-08-08,NA,45.303607869655714,8.844804609965438,UB
6807,655,Sulfur_dioxide,Darfo (aria),221,BS,Darfo Boario Terme,1999-01-01,2009-11-13,45.87460210989037,10.17735680898138,SB
5965,633,NO2,Soresina,70,CR,Soresina,1999-10-16,NA,45.28397715446764,9.863398419993635,ST
6316,537,NOx,Lainate,176,MI,Lainate,1991-09-25,2013-09-12,45.56753666798259,9.025796665025974,NA
20157,642,PM2.5,Pavia - via Folperti,77,PV,Pavia,2013-11-20,NA,45.19467609907785,9.164638300630086,UB
10473,1267,NOx,Turano,65,LO,Turano Lodigiano,2009-08-03,2017-03-31,45.25028308918456,9.62125819274314,NA
20156,642,Ammonia,Pavia - via Folperti,77,PV,Pavia,2013-11-20,NA,45.19467609907785,9.164638300630086,UB
5721,545,Ozone,Motta Visconti (aria),100,MI,Motta Visconti,1998-03-17,NA,45.281956197427846,8.988562726793255,SB
6745,647,Sulfur_dioxide,Breno,342,BS,Breno,1992-06-09,2003-11-18,45.956830532998445,10.301058339435231,NA
10095,697,NOx,Borgofranco - loc. Bonizzo,14,MN,Borgofranco sul Po,2006-11-29,NA,45.04650153816735,11.18093581912755,SB
10173,703,PM10,Schivenoglia,NA,MN,Schivenoglia,2007-01-01,NA,45.016877820755425,11.07609463264049,RB
10048,688,Sulfur_dioxide,Scaldasole - AGIP,88,PV,Scaldasole,2007-01-01,2017-01-01,45.12439458258305,8.911754872280346,RB
5847,558,CO,Busto Arsizio - Accam,206,VA,Busto Arsizio,1998-12-06,NA,45.582894292717725,8.842165456706075,SB
5953,627,NO2,Cremona - p.zza Cadorna,39,CR,Cremona,1997-12-12,NA,45.13194691285173,10.015741513336042,UT
5697,613,Sulfur_dioxide,Spino d`Adda - SP1 $,80,CR,Spino d'Adda,2000-01-13,2006-04-13,45.389753164229845,9.489402571088535,NA
10197,697,PM2.5,Borgofranco - loc. Bonizzo,14,MN,Borgofranco sul Po,2006-12-01,NA,45.04650153816735,11.18093581912755,SB
6405,625,NOx,Casalmaggiore - via Volta $,23,CR,Casalmaggiore,2002-01-01,2007-02-21,44.980660403835316,10.427376916159512,NA
10299,653,Benzene,Brescia - via Ziziola,125,BS,Brescia,1997-10-15,2018-07-30,45.51455919056731,10.218463502801265,NA
5522,519,NO2,Tribiano $,94,MI,Tribiano,1993-09-17,2006-04-13,45.40554635277101,9.370994067584798,NA
6705,643,CO,Pavia - p.zza Minerva,77,PV,Pavia,2002-03-03,NA,45.18632908049483,9.146666041286784,UT
6418,629,CO,Crema - via XI febbraio,79,CR,Crema,1996-05-17,NA,45.366309078194334,9.703945513613167,SB
10007,684,CO,Truccazzano,105,MI,Truccazzano,2006-02-17,2018-01-01,45.48455813667995,9.471348388974729,NA
5654,556,Sulfur_dioxide,Gallarate - P.zza S.Lorenzo,240,VA,Gallarate,1991-06-25,2001-03-26,45.65745982503037,8.797570832831466,NA
9896,609,NOx,Casirate d`Adda,108,BG,Casirate d'Adda,2005-11-10,NA,45.49822713394494,9.556232262351761,RB
10282,705,Ozone,Milano - Pascal Città Studi,122,MI,Milano,2007-06-16,NA,45.47899606168744,9.235491038497502,UB
20155,690,PM10,Casoni - AGIP,73,PV,Mezzana Bigli,2013-11-20,NA,45.069658641385914,8.86888929943922,RB
17285,1374,NOx,Monza Parco,181,MB,Monza,2013-05-01,NA,45.60123219955139,9.27507265782848,SB
10449,560,PM2.5,Varese - via Copelli,383,VA,Varese,2009-09-01,NA,45.816973233263674,8.820240707158211,UT
5663,593,Sulfur_dioxide,Ciserano,159,BG,Ciserano,1991-06-13,2003-06-03,45.591548429500484,9.606127731575759,NA
5706,530,Ozone,Agrate,162,MB,Agrate Brianza,1996-03-27,2018-01-01,45.57578475922807,9.354105650819204,NA
6929,576,PM10,Merate,279,LC,Merate,2000-01-01,NA,45.69795198970243,9.406190938686596,UT
10145,701,CO,Ostiglia - via Colombo,14,MN,Ostiglia,2006-11-29,2017-01-01,45.073311155731965,11.137034007299844,UB
9972,679,Ozone,Valmadrera,247,LC,Valmadrera,2006-02-21,NA,45.842207261022544,9.351658166127958,SB
12619,542,Nikel,Meda,222,MB,Meda,2008-04-18,NA,45.66176219189168,9.156643984551597,UT
5733,574,Ozone,Lecco - Via Amendola,214,LC,Lecco,1991-02-17,2007-03-28,45.850191194578535,9.395577066893223,UT
6820,656,PM_tot,Gambara,47,BS,Gambara,1990-02-16,2004-08-10,45.24954362474624,10.299119496064078,RB
10336,709,PM_tot,Vigevano - via Valletta,109,PV,Vigevano,2007-08-07,NA,45.303607869655714,8.844804609965438,UB
9991,681,Ozone,Moggio,1194,LC,Moggio,2006-07-12,NA,45.91278752030292,9.497538167653424,RB
5577,574,NO2,Lecco - Via Amendola,214,LC,Lecco,1991-02-17,NA,45.850191194578535,9.395577066893223,UT
6238,562,NOx,Mariano Comense,256,CO,Mariano Comense,1991-01-01,2015-03-01,45.68865731381679,9.180657768638271,NA
5787,589,CO,Nembro $,309,BG,Nembro,1994-12-01,2007-03-14,45.743036830343144,9.760535572770022,NA
5816,512,CO,Carate Brianza,250,MB,Carate Brianza,1994-10-25,2011-07-01,45.672024734078455,9.234591661788048,NA
6898,668,NO2,Mantova - Lunetta 2,25,MN,Mantova,2003-01-01,2018-07-30,45.157985278189244,10.823931433968092,NA
5643,538,Sulfur_dioxide,Settimo Milanese,132,MI,Settimo Milanese,1992-05-19,2003-08-26,45.480268785554635,9.056862031759728,NA
9890,674,PM10,Monza - via Machiavelli,162,MB,Monza,2005-11-18,NA,45.58026348442243,9.273573092713274,UB
10326,708,NO2,Parona,112,PV,Parona,2007-10-01,NA,45.281935610357905,8.754334594539825,UI
5551,548,NO2,Milano - via Senato,118,MI,Milano,1995-04-21,NA,45.470499014097,9.197460360112531,UT
5597,594,NO2,Bergamo - via Goisis,290,BG,Bergamo,1996-09-14,2018-07-30,45.715912469852206,9.688958745309764,NA
10141,701,NOx,Ostiglia - via Colombo,14,MN,Ostiglia,2006-11-29,2017-01-01,45.073311155731965,11.137034007299844,UB
6380,572,NOx,Morbegno - via Cortivacci,262,SO,Morbegno,1999-01-13,NA,46.132282960003735,9.566179893984474,UB
12671,703,Benzo_a_pyrene,Schivenoglia,NA,MN,Schivenoglia,2008-02-22,NA,45.016877820755425,11.07609463264049,RB
10350,532,Ozone,Cuggiono,156,MI,Cuggiono,2007-02-28,2017-01-01,45.5014842949991,8.804453762398397,NA
6216,597,NOx,Lallio,212,BG,Lallio,2000-04-13,2017-01-01,45.65966391792855,9.618568761257565,UT
6594,613,NO2,Spino d`Adda - SP1 $,80,CR,Spino d'Adda,2000-01-13,2006-04-13,45.389753164229845,9.489402571088535,NA
9859,673,CO,Voghera - via Pozzoni,90,PV,Voghera,2005-07-05,NA,44.99954598914026,9.008437381815693,UB
5796,586,CO,Costa Volpino,192,BG,Costa Volpino,1993-07-26,2011-09-12,45.82715793876258,10.09706172418631,NA
6655,555,PM_tot,Busto Arsizio - via Magenta,222,VA,Busto Arsizio,1991-05-25,2006-06-19,45.610736040012604,8.850115752092071,NA
10029,685,PM_tot,Calusco d' Adda,273,BG,Calusco d'Adda,2006-05-05,2017-01-01,45.69042907854514,9.484260927647789,SB
6605,590,PM_tot,Ponte S.Pietro,225,BG,Ponte San Pietro,1990-09-18,2000-01-28,45.696081938463465,9.587784018279269,NA
10270,655,Ozone,Darfo (aria),221,BS,Darfo Boario Terme,2007-01-01,NA,45.87460210989037,10.17735680898138,SB
10167,703,NO2,Schivenoglia,NA,MN,Schivenoglia,2006-11-29,NA,45.016877820755425,11.07609463264049,RB
6611,595,PM_tot,Filago - via Don Milani,190,BG,Filago,1991-12-07,2004-10-13,45.63386450908066,9.556084255790864,UB
6931,583,PM10,Bergamo - via Meucci,249,BG,Bergamo,2000-07-03,NA,45.69103740547214,9.643650579461385,UB
5740,567,Ozone,Chiavenna,333,SO,Chiavenna,1996-05-30,2018-01-01,46.320803497826546,9.395590913257395,NA
5813,511,CO,Abbiategrasso,118,MI,Abbiategrasso,1997-11-02,2011-06-25,45.395404490146184,8.913416566778292,NA
6629,600,PM_tot,Lodi - viale Vignati,80,LO,Lodi,1999-12-30,2001-01-08,45.30601298752377,9.48526286320174,UT
12661,681,Nikel,Moggio,1194,LC,Moggio,2008-06-14,NA,45.91278752030292,9.497538167653424,RB
12531,1297,PM10,Spinadesco,48,CR,Spinadesco,2011-02-16,NA,45.150468869856816,9.930596472272326,RI
6798,654,NO2,Sarezzo - via Minelli,269,BS,Sarezzo,1990-02-18,NA,45.64962671224069,10.205090218837002,UB
6631,601,PM_tot,Montanaso,84,LO,Montanaso Lombardo,2000-01-13,2004-07-29,45.33613100905199,9.45255388178171,RI
6212,596,NOx,Osio Sotto,182,BG,Osio Sotto,2000-04-06,NA,45.62055567939559,9.611737821812373,SB
20197,598,PM10,S.Rocco al Porto,50,LO,San Rocco al Porto,2002-01-01,NA,45.081986696978625,9.70078817718398,SB
10159,702,Ozone,Pieve di Coriano,16,MN,Pieve di Coriano,2006-11-29,NA,45.03394281418463,11.116918109540054,NA
5540,537,NO2,Lainate,176,MI,Lainate,1991-09-25,2013-09-12,45.56753666798259,9.025796665025974,NA
20031,693,Ammonia,Sannazzaro de' Burgondi - AGIP,85,PV,Sannazzaro de' Burgondi,2013-10-24,NA,45.10276627684137,8.90417452771467,UI
5639,509,Sulfur_dioxide,Rivolta d` Adda - via Beccaria,101,CR,Rivolta d'Adda,1984-12-14,2008-06-12,45.46855301694732,9.511345333837518,NA
9804,670,NOx,Mantova - S.Agnese,22,MN,Mantova,2006-04-23,NA,45.16056833010576,10.79556411370788,UB
9739,608,PM10,Codogno - via Trento,59,LO,Codogno,2005-04-09,NA,45.15937280234111,9.69814824935254,UT
5712,510,Ozone,Inzago,138,MI,Inzago,2001-02-24,2018-01-01,45.539768856661,9.486885367436152,NA
12607,546,Nikel,Magenta,137,MI,Magenta,2008-04-15,NA,45.462415791106615,8.880210433125571,UB
30165,669,Ozone,Brescia - Villaggio Sereno,70,BS,Brescia,2013-12-13,NA,45.513038818653754,10.19194188877931,UB
6609,593,PM_tot,Ciserano,159,BG,Ciserano,1991-06-10,2002-03-24,45.591548429500484,9.606127731575759,NA
12022,1297,PM2.5,Spinadesco,48,CR,Spinadesco,2011-02-16,NA,45.150468869856816,9.930596472272326,RI
5556,553,NO2,Saronno - via Marconi,211,VA,Saronno,1993-06-23,2003-12-03,45.62396968592561,9.037226525673523,NA
10491,681,PM10,Moggio,1194,LC,Moggio,2009-03-31,NA,45.91278752030292,9.497538167653424,RB
10096,697,Benzene,Borgofranco - loc. Bonizzo,14,MN,Borgofranco sul Po,2006-11-29,NA,45.04650153816735,11.18093581912755,SB
6944,632,PM10,Pizzighettone - via Formigara,45,CR,Pizzighettone,2000-02-03,2014-01-02,45.18168712150796,9.793385935673802,NA
10324,707,Ozone,Mortara,108,PV,Mortara,2007-10-04,2017-01-01,45.254728720788826,8.74415437971093,UB
10013,576,PM2.5,Merate,279,LC,Merate,2006-09-10,NA,45.69795198970243,9.406190938686596,UT
17038,583,Arsenic,Bergamo - via Meucci,249,BG,Bergamo,2012-01-13,NA,45.69103740547214,9.643650579461385,UB
12684,633,Nikel,Soresina,70,CR,Soresina,2008-04-01,NA,45.28397715446764,9.863398419993635,ST
5711,525,Ozone,Corsico,119,MI,Corsico,1990-01-18,2018-01-01,45.43610851009912,9.097410841871474,NA
12585,1303,PM10,Cremona - via Gerre Borghi,36,CR,Cremona,2012-01-01,2017-01-01,45.10953938027215,10.069230734956498,RB
6218,583,NOx,Bergamo - via Meucci,249,BG,Bergamo,1989-06-01,NA,45.69103740547214,9.643650579461385,UB
5802,566,CO,Olgiate Comasco - via Roma $,404,CO,Olgiate Comasco,1995-02-01,2010-04-15,45.78389725453634,8.966397886811311,NA
9797,670,Benzene,Mantova - S.Agnese,22,MN,Mantova,2005-09-30,NA,45.16056833010576,10.79556411370788,UB
5596,593,NO2,Ciserano,159,BG,Ciserano,1994-11-30,2018-07-30,45.591548429500484,9.606127731575759,NA
5614,527,Sulfur_dioxide,Castano Primo,175,MI,Castano Primo,1989-12-18,2009-12-04,45.54594268367404,8.776104584370271,NA
9993,682,NO2,Ferrera Erbognone - ENI,88,PV,Ferrera Erbognone,2006-01-21,NA,45.11350314482957,8.874064848882607,RI
5820,525,CO,Corsico,119,MI,Corsico,1990-12-18,2018-07-30,45.43610851009912,9.097410841871474,NA
9985,600,PM2.5,Lodi - viale Vignati,80,LO,Lodi,2006-07-10,NA,45.30601298752377,9.48526286320174,UT
10038,687,NO2,Ferno,215,VA,Ferno,2006-11-06,NA,45.61924377994763,8.756970445453431,UB
6943,630,PM10,Crema - via Indipendenza $,78,CR,Crema,1999-10-28,2007-04-03,45.369413822391465,9.677268708195667,NA
9798,670,CO,Mantova - S.Agnese,22,MN,Mantova,2004-12-28,NA,45.16056833010576,10.79556411370788,UB
5790,592,CO,Treviglio,191,BG,Treviglio,1994-12-01,NA,45.51933498138716,9.592009994888425,UT
12690,560,Nikel,Varese - via Copelli,383,VA,Varese,2008-04-01,NA,45.816973233263674,8.820240707158211,UT
6286,530,NOx,Agrate,162,MB,Agrate Brianza,1990-02-13,2018-07-30,45.57578475922807,9.354105650819204,NA
5710,544,Ozone,Cormano,153,MI,Cormano,1994-11-03,NA,45.551041944372415,9.162613653151322,UB
6908,531,PM10,Limito,114,MI,Pioltello,1998-02-21,NA,45.48363035323249,9.327360033215145,UB
6838,658,Sulfur_dioxide,Manerbio - via Solferino,66,BS,Manerbio,1992-08-27,2003-09-15,45.34995949312804,10.144752235947312,NA
5698,604,Sulfur_dioxide,Tavazzano,85,LO,Tavazzano con Villavesco,2000-01-13,NA,45.33036100181227,9.414644726627262,SB
6246,573,NOx,Colico,229,LC,Colico,1996-11-06,NA,46.1381409051264,9.384687247651794,SB
6817,656,NOx,Gambara,47,BS,Gambara,1990-01-01,NA,45.24954362474624,10.299119496064078,RB
5575,572,NO2,Morbegno - via Cortivacci,262,SO,Morbegno,1999-01-13,NA,46.132282960003735,9.566179893984474,UB
6942,628,PM10,Cremona - p.zza Libertà $,61,CR,Cremona,1996-06-05,2006-04-04,45.13737896273478,10.032359066275932,NA
6927,574,PM10,Lecco - Via Amendola,214,LC,Lecco,2000-05-12,NA,45.850191194578535,9.395577066893223,UT
6924,570,PM10,Tirano - viale Italia,439,SO,Tirano,1999-12-15,2012-04-02,46.21774621439411,10.156470232146322,NA
5572,569,NO2,Sondrio - via Mazzini,307,SO,Sondrio,1993-11-01,NA,46.16796681227828,9.87014407497457,UT
6762,649,Sulfur_dioxide,Brescia - Broletto,149,BS,Brescia,1983-01-01,2000-06-06,45.540057846971386,10.222818449274216,UT
10548,1269,PM10,Dalmine - via Verdi,207,BG,Dalmine,2010-02-26,NA,45.64970251236247,9.601223338785262,UT
9921,667,NOx,Marmirolo - Bosco Fontana,22,MN,Marmirolo,2004-06-05,2018-07-30,45.20817903938493,10.74263625117323,NA
6423,630,NOx,Crema - via Indipendenza $,78,CR,Crema,2002-01-01,2007-04-03,45.369413822391465,9.677268708195667,NA
6657,552,PM_tot,Varese - Vidoletti,425,VA,Varese,1991-12-30,2006-04-30,45.83690077655548,8.80392612667495,UB
10079,695,NO2,Ponti sul Mincio,113,MN,Ponti sul Mincio,2006-12-20,NA,45.41277169168634,10.683357343786835,SB
5538,535,NO2,Lacchiarella,97,MI,Lacchiarella,1999-03-19,2018-07-30,45.32451741284727,9.134517264199278,NA
5689,607,Sulfur_dioxide,Abbadia Cerreto,64,LO,Abbadia Cerreto,2000-01-13,2008-04-11,45.309502269282255,9.585790416120414,NA
6902,601,Ozone,Montanaso,84,LO,Montanaso Lombardo,2004-08-04,2017-01-01,45.33613100905199,9.45255388178171,RI
6262,603,NOx,Castiraga,74,LO,Castiraga Vidardo,2000-01-13,NA,45.26232519992153,9.400281323067924,NA
5803,577,CO,Calolziocorte,215,LC,Calolziocorte,1994-11-28,2012-01-04,45.80209550514092,9.429467320277878,NA
6358,538,NOx,Settimo Milanese,132,MI,Settimo Milanese,1992-05-27,2018-07-30,45.480268785554635,9.056862031759728,NA
6236,563,NOx,Fino Mornasco,304,CO,Fino Mornasco,1992-01-09,2018-07-30,45.74804440954574,9.042592844183936,NA
6202,591,NOx,Seriate,256,BG,Seriate,1991-10-31,2018-07-30,45.68635606439914,9.714947917631529,NA
10346,707,PM2.5,Mortara,108,PV,Mortara,2007-12-01,2017-01-01,45.254728720788826,8.74415437971093,UB
17159,633,PM2.5,Soresina,70,CR,Soresina,2012-10-11,NA,45.28397715446764,9.863398419993635,ST
10587,1266,Ammonia,Bertonico,65,LO,Bertonico,2009-03-04,NA,45.23349364130374,9.666250375296032,RB
5562,559,NO2,Somma Lombardo - MXP,210,VA,Somma Lombardo,2000-03-21,2018-07-30,45.649537127292405,8.71269145828479,NA
6302,525,NOx,Corsico,119,MI,Corsico,1989-10-30,2018-07-30,45.43610851009912,9.097410841871474,NA
12694,560,Benzo_a_pyrene,Varese - via Copelli,383,VA,Varese,2008-04-02,NA,45.816973233263674,8.820240707158211,UT
20041,670,Ozone,Mantova - S.Agnese,22,MN,Mantova,2013-12-13,NA,45.16056833010576,10.79556411370788,UB
5605,602,NO2,Melegnano,83,MI,Melegnano,2000-01-13,NA,45.35428575070997,9.329243424113708,NA
5576,573,NO2,Colico,229,LC,Colico,1996-11-05,NA,46.1381409051264,9.384687247651794,SB
5543,540,NO2,Garbagnate,175,MI,Garbagnate Milanese,1992-12-11,2018-07-30,45.5717162655023,9.07824159056828,NA
9833,664,Benzene,Mantova - p.zza Gramsci,18,MN,Mantova,2005-05-16,NA,45.151743379576594,10.78140770009565,UT
5547,544,NO2,Cormano,153,MI,Cormano,1994-10-24,NA,45.551041944372415,9.162613653151322,UB
9967,509,PM10,Rivolta d` Adda - via Beccaria,101,CR,Rivolta d'Adda,2006-01-10,2018-01-01,45.46855301694732,9.511345333837518,NA
5838,528,CO,Milano - Verziere,116,MI,Milano,1988-09-30,2011-07-04,45.463346740666545,9.195324807668857,UT
6842,659,Sulfur_dioxide,Odolo,349,BS,Odolo,1990-10-08,2004-07-20,45.64604963372525,10.38929530279196,SB
6827,657,Sulfur_dioxide,Lonato,180,BS,Lonato del Garda,1990-02-16,2004-08-18,45.463753136210265,10.480772043571283,UB
5612,530,Sulfur_dioxide,Agrate,162,MB,Agrate Brianza,1990-02-14,2006-05-05,45.57578475922807,9.354105650819204,NA
5626,537,Sulfur_dioxide,Lainate,176,MI,Lainate,1991-09-25,2000-10-18,45.56753666798259,9.025796665025974,NA
5730,564,Ozone,Erba - via Battisti,279,CO,Erba,2009-01-01,NA,45.808573806922965,9.221779204488435,UB
12663,681,Cadmium,Moggio,1194,LC,Moggio,2008-06-14,NA,45.91278752030292,9.497538167653424,RB
5606,603,NO2,Castiraga,74,LO,Castiraga Vidardo,2000-01-13,2018-01-01,45.26232519992153,9.400281323067924,NA
6037,544,Benzene,Cormano,153,MI,Cormano,2001-02-19,2001-10-04,45.551041944372415,9.162613653151322,UB
9860,673,NOx,Voghera - via Pozzoni,90,PV,Voghera,2005-07-28,NA,44.99954598914026,9.008437381815693,UB
6761,649,NO2,Brescia - Broletto,149,BS,Brescia,1983-01-01,NA,45.540057846971386,10.222818449274216,UT
6719,644,CO,Vigevano - viale  Petrarca,107,PV,Vigevano,2004-01-24,2013-09-19,45.326401500542325,8.860310253579987,UB
17288,1374,Ozone,Monza Parco,181,MB,Monza,2013-02-09,NA,45.60123219955139,9.27507265782848,SB
6870,663,Benzene,Mantova - via Ariosto,18,MN,Mantova,2003-01-01,NA,45.14526012578896,10.80332595007927,UI
5624,510,Sulfur_dioxide,Inzago,138,MI,Inzago,1989-12-14,2010-02-19,45.539768856661,9.486885367436152,NA
5743,569,Ozone,Sondrio - via Mazzini,307,SO,Sondrio,1993-11-01,2003-05-19,46.16796681227828,9.87014407497457,UT
9927,677,PM10,Cremona - Via Fatebenefratelli,43,CR,Cremona,2006-04-08,NA,45.14254063221695,10.043836158369393,UB
6619,561,PM_tot,Como - viale Cattaneo,202,CO,Como,1991-02-17,2000-01-02,45.81504286011291,9.06697137484454,UT
5581,578,NO2,Varenna $,220,LC,Varenna,1991-02-21,2008-02-07,46.00942283474235,9.285304059583972,NA
12610,546,Lead,Magenta,137,MI,Magenta,2008-04-15,NA,45.462415791106615,8.880210433125571,UB
6693,642,PM_tot,Pavia - via Folperti,77,PV,Pavia,2002-06-01,2011-02-03,45.19467609907785,9.164638300630086,UB
12673,1264,Nikel,Sondrio - via Paribelli,290,SO,Sondrio,2008-04-01,NA,46.167852440665115,9.879209924469903,UB
5853,560,CO,Varese - via Copelli,383,VA,Varese,2003-08-07,NA,45.816973233263674,8.820240707158211,UT
6320,539,NOx,Milano - viale Liguria,115,MI,Milano,1991-10-24,NA,45.443857653564926,9.167944501742676,UT
6248,574,NOx,Lecco - Via Amendola,214,LC,Lecco,1991-01-01,NA,45.850191194578535,9.395577066893223,UT
5701,567,Sulfur_dioxide,Chiavenna,333,SO,Chiavenna,1993-10-27,2007-01-18,46.320803497826546,9.395590913257395,NA
6841,659,NO2,Odolo,349,BS,Odolo,2013-12-13,NA,45.64604963372525,10.38929530279196,SB
10006,684,Sulfur_dioxide,Truccazzano,105,MI,Truccazzano,2006-02-17,2018-01-01,45.48455813667995,9.471348388974729,NA
10108,698,NO2,Ceneselli,13,RO,Ceneselli,2006-11-28,2017-01-01,45.01325676849334,11.372344948058235,NA
6787,653,Sulfur_dioxide,Brescia - via Ziziola,125,BS,Brescia,1997-10-15,2012-01-04,45.51455919056731,10.218463502801265,NA
6730,645,NO2,Voghera - viale Repubblica $,100,PV,Voghera,2002-03-07,2012-10-16,44.98586313155348,9.007128842722402,NA
10333,709,NOx,Vigevano - via Valletta,109,PV,Vigevano,2007-08-08,NA,45.303607869655714,8.844804609965438,UB
5834,548,CO,Milano - via Senato,118,MI,Milano,1995-05-01,NA,45.470499014097,9.197460360112531,UT
6919,561,PM10,Como - viale Cattaneo,202,CO,Como,2000-01-04,NA,45.81504286011291,9.06697137484454,UT
6767,649,Ozone,Brescia - Broletto,149,BS,Brescia,1983-01-01,2004-02-27,45.540057846971386,10.222818449274216,UT
9995,682,CO,Ferrera Erbognone - ENI,88,PV,Ferrera Erbognone,2006-01-21,NA,45.11350314482957,8.874064848882607,RI
5788,590,CO,Ponte S.Pietro,225,BG,Ponte San Pietro,1990-07-04,2011-09-12,45.696081938463465,9.587784018279269,NA
5739,571,Ozone,Bormio,1225,SO,Bormio,1996-05-29,NA,46.46952397132585,10.375432759159036,UB
6869,642,Benzene,Pavia - via Folperti,77,PV,Pavia,2002-06-06,NA,45.19467609907785,9.164638300630086,UB
12601,655,Nikel,Darfo (aria),221,BS,Darfo Boario Terme,2008-04-18,NA,45.87460210989037,10.17735680898138,SB
5852,553,CO,Saronno - via Marconi,211,VA,Saronno,1993-06-15,2012-01-04,45.62396968592561,9.037226525673523,NA
6425,631,CO,Piadena,30,CR,Piadena,1996-05-19,2012-01-04,45.12979322367744,10.379831668522419,NA
5627,505,Sulfur_dioxide,Legnano,199,MI,Legnano,1973-11-20,2011-02-08,45.596133932132915,8.91881399306327,NA
9920,665,NOx,Viadana,37,MN,Viadana,2004-06-15,NA,44.92469404955067,10.517502067117825,NA
5713,502,Ozone,Milano - via Juvara,122,MI,Milano,1981-01-12,2007-07-20,45.473225708577175,9.222315138737468,NA
6632,604,PM_tot,Tavazzano,85,LO,Tavazzano con Villavesco,2000-01-13,2005-03-24,45.33036100181227,9.414644726627262,SB
6782,652,CO,Brescia - via Turati,154,BS,Brescia,1999-01-12,NA,45.539529434955995,10.231785907477223,UT
10581,1274,NO2,Perledo,212,LC,Perledo,2010-09-01,NA,46.01582830438376,9.286409208680807,RB
9917,663,NOx,Mantova - via Ariosto,18,MN,Mantova,2004-06-05,NA,45.14526012578896,10.80332595007927,UI
6308,540,NOx,Garbagnate,175,MI,Garbagnate Milanese,1992-12-11,2018-07-30,45.5717162655023,9.07824159056828,NA
6810,655,PM_tot,Darfo (aria),221,BS,Darfo Boario Terme,1999-01-01,2004-07-15,45.87460210989037,10.17735680898138,SB
6860,661,Sulfur_dioxide,Rezzato,147,BS,Rezzato,1992-08-05,2003-09-17,45.51570829484459,10.336240422996532,SI
5791,593,CO,Ciserano,159,BG,Ciserano,1994-11-29,2011-09-12,45.591548429500484,9.606127731575759,NA
10411,1263,CO,Villa di Serio,280,BG,Villa di Serio,2008-10-07,2011-09-12,45.73589144532835,9.738394788043442,NA
5814,551,CO,Arconate (aria),182,MI,Arconate,1999-01-20,NA,45.54851735741946,8.847321929216262,SB
6608,592,PM_tot,Treviglio,191,BG,Treviglio,1991-06-05,2000-01-28,45.51933498138716,9.592009994888425,UT
6871,663,NO2,Mantova - via Ariosto,18,MN,Mantova,2003-01-01,NA,45.14526012578896,10.80332595007927,UI
12626,705,Cadmium,Milano - Pascal Città Studi,122,MI,Milano,2008-04-01,NA,45.47899606168744,9.235491038497502,UB
5848,555,CO,Busto Arsizio - via Magenta,222,VA,Busto Arsizio,1991-05-25,2012-01-03,45.610736040012604,8.850115752092071,NA
9928,677,NO2,Cremona - Via Fatebenefratelli,43,CR,Cremona,2006-04-11,NA,45.14254063221695,10.043836158369393,UB
5638,514,Sulfur_dioxide,Rho - via Statuto,152,MI,Rho,1982-10-18,1999-05-04,45.523425662003476,9.044599871111005,UB
6731,645,Sulfur_dioxide,Voghera - viale Repubblica $,100,PV,Voghera,2002-03-07,2003-08-08,44.98586313155348,9.007128842722402,NA
6587,574,Sulfur_dioxide,Lecco - Via Amendola,214,LC,Lecco,1991-02-17,NA,45.850191194578535,9.395577066893223,UT
5693,600,Sulfur_dioxide,Lodi - viale Vignati,80,LO,Lodi,1999-12-30,NA,45.30601298752377,9.48526286320174,UT
5521,518,NO2,Galliate,153,NO,Galliate,1992-12-07,2017-01-04,45.46804407930967,8.73676932023362,NA
9919,666,NOx,Porto Mantovano,29,MN,Porto Mantovano,2004-06-05,2017-01-01,45.19554009017032,10.79726229869026,NA
5528,525,NO2,Corsico,119,MI,Corsico,1989-10-30,2018-07-30,45.43610851009912,9.097410841871474,NA
17122,548,PM2.5,Milano - via Senato,118,MI,Milano,2012-09-04,NA,45.470499014097,9.197460360112531,UT
5722,547,Ozone,Milano - Parco Lambro,123,MI,Milano,1995-05-03,2018-01-01,45.499583690483405,9.247326889507654,NA
9978,609,PM2.5,Casirate d`Adda,108,BG,Casirate d'Adda,2005-11-11,NA,45.49822713394494,9.556232262351761,RB
5599,596,NO2,Osio Sotto,182,BG,Osio Sotto,2000-04-06,NA,45.62055567939559,9.611737821812373,SB
10452,1265,NO2,Lodi - S. Alberto,76,LO,Lodi,2009-08-03,NA,45.302783503095775,9.495273696926324,UB
6915,554,PM10,Saronno - via Santuario,212,VA,Saronno,2003-12-16,NA,45.626218960836006,9.04006309067821,UB
6879,664,CO,Mantova - p.zza Gramsci,18,MN,Mantova,2004-06-11,NA,45.151743379576594,10.78140770009565,UT
5508,505,NO2,Legnano,199,MI,Legnano,1990-01-10,2018-07-30,45.596133932132915,8.91881399306327,NA
10327,708,Sulfur_dioxide,Parona,112,PV,Parona,2007-08-15,NA,45.281935610357905,8.754334594539825,UI
20441,681,NOx,Moggio,1194,LC,Moggio,2007-03-17,NA,45.91278752030292,9.497538167653424,RB
9899,609,Ozone,Casirate d`Adda,108,BG,Casirate d'Adda,2005-12-01,NA,45.49822713394494,9.556232262351761,RB
5589,586,NO2,Costa Volpino,192,BG,Costa Volpino,1993-07-26,2018-07-30,45.82715793876258,10.09706172418631,NA
10017,685,NOx,Calusco d' Adda,273,BG,Calusco d'Adda,2006-06-30,NA,45.69042907854514,9.484260927647789,SB
6935,592,PM10,Treviglio,191,BG,Treviglio,2000-02-03,NA,45.51933498138716,9.592009994888425,UT
5636,515,Sulfur_dioxide,Pero,141,MI,Pero,1982-05-26,2018-07-30,45.509852266792514,9.089972020337333,NA
6648,517,PM_tot,Turbigo,141,MI,Turbigo,1990-01-01,2007-02-26,45.52655086994247,8.736496578379215,UB
6953,659,PM10,Odolo,349,BS,Odolo,2000-06-23,NA,45.64604963372525,10.38929530279196,SB
10016,664,Sulfur_dioxide,Mantova - p.zza Gramsci,18,MN,Mantova,2006-10-30,NA,45.151743379576594,10.78140770009565,UT
20154,690,Ozone,Casoni - AGIP,73,PV,Mezzana Bigli,2013-11-20,NA,45.069658641385914,8.86888929943922,RB
5960,629,Ozone,Crema - via XI febbraio,79,CR,Crema,1996-04-28,NA,45.366309078194334,9.703945513613167,SB
10354,516,PM10,Robecchetto,135,MI,Robecchetto con Induno,2008-06-27,2017-01-01,45.51782219008838,8.766562109244964,SB
5640,516,Sulfur_dioxide,Robecchetto,135,MI,Robecchetto con Induno,1982-03-08,2010-01-18,45.51782219008838,8.766562109244964,SB
5818,529,CO,Cinisello Balsamo,149,MI,Cinisello Balsamo,1988-09-29,2011-07-04,45.55232578741208,9.227764233272634,UT
10347,670,PM2.5,Mantova - S.Agnese,22,MN,Mantova,2007-12-21,NA,45.16056833010576,10.79556411370788,UB
10479,1267,PM2.5,Turano,65,LO,Turano Lodigiano,2009-08-03,2017-03-31,45.25028308918456,9.62125819274314,NA
5622,518,Sulfur_dioxide,Galliate,153,NO,Galliate,1982-03-08,2017-01-08,45.46804407930967,8.73676932023362,NA
6396,553,NOx,Saronno - via Marconi,211,VA,Saronno,1993-06-23,2003-12-03,45.62396968592561,9.037226525673523,NA
10454,1265,Ozone,Lodi - S. Alberto,76,LO,Lodi,2009-08-03,NA,45.302783503095775,9.495273696926324,UB
12627,705,Lead,Milano - Pascal Città Studi,122,MI,Milano,2008-04-01,NA,45.47899606168744,9.235491038497502,UB
9971,679,CO,Valmadrera,247,LC,Valmadrera,2006-02-16,NA,45.842207261022544,9.351658166127958,SB
6288,551,NOx,Arconate (aria),182,MI,Arconate,1999-01-20,NA,45.54851735741946,8.847321929216262,SB
12584,627,PM10,Cremona - p.zza Cadorna,39,CR,Cremona,2012-01-01,NA,45.13194691285173,10.015741513336042,UT
10396,674,PM2.5,Monza - via Machiavelli,162,MB,Monza,2008-12-19,NA,45.58026348442243,9.273573092713274,UB
6354,548,NOx,Milano - via Senato,118,MI,Milano,1995-04-21,NA,45.470499014097,9.197460360112531,UT
10078,695,NOx,Ponti sul Mincio,113,MN,Ponti sul Mincio,2006-12-20,NA,45.41277169168634,10.683357343786835,SB
10114,698,PM10,Ceneselli,13,RO,Ceneselli,2007-01-01,2017-01-01,45.01325676849334,11.372344948058235,NA
9891,552,PM10,Varese - Vidoletti,425,VA,Varese,2006-05-01,2010-04-01,45.83690077655548,8.80392612667495,UB
5700,571,Sulfur_dioxide,Bormio,1225,SO,Bormio,1993-11-01,NA,46.46952397132585,10.375432759159036,UB
5554,551,NO2,Arconate (aria),182,MI,Arconate,1999-01-20,NA,45.54851735741946,8.847321929216262,SB
5600,597,NO2,Lallio,212,BG,Lallio,2000-04-13,2017-01-01,45.65966391792855,9.618568761257565,UT
5842,571,CO,Bormio,1225,SO,Bormio,1993-11-02,NA,46.46952397132585,10.375432759159036,UB
5731,566,Ozone,Olgiate Comasco - via Roma $,404,CO,Olgiate Comasco,1996-08-01,2010-04-15,45.78389725453634,8.966397886811311,NA
6956,528,PM10,Milano - Verziere,116,MI,Milano,2001-11-01,NA,45.463346740666545,9.195324807668857,UT
9923,677,Sulfur_dioxide,Cremona - Via Fatebenefratelli,43,CR,Cremona,2006-04-14,NA,45.14254063221695,10.043836158369393,UB
9882,674,Ozone,Monza - via Machiavelli,162,MB,Monza,2005-10-21,NA,45.58026348442243,9.273573092713274,UB
6616,586,PM_tot,Costa Volpino,192,BG,Costa Volpino,1993-07-26,2012-11-23,45.82715793876258,10.09706172418631,NA
6922,566,PM10,Olgiate Comasco - via Roma $,404,CO,Olgiate Comasco,1995-02-01,2010-04-15,45.78389725453634,8.966397886811311,NA
5629,541,Sulfur_dioxide,Limbiate,181,MB,Limbiate,1994-11-24,1999-10-12,45.597443498230305,9.125948942472387,NA
6326,546,NOx,Magenta,137,MI,Magenta,1995-04-22,NA,45.462415791106615,8.880210433125571,UB
5956,628,Sulfur_dioxide,Cremona - p.zza Libertà $,61,CR,Cremona,1992-11-01,2006-04-04,45.13737896273478,10.032359066275932,NA
6620,577,PM_tot,Calolziocorte,215,LC,Calolziocorte,1993-06-01,2000-03-08,45.80209550514092,9.429467320277878,NA
12615,670,Cadmium,Mantova - S.Agnese,22,MN,Mantova,2008-02-19,NA,45.16056833010576,10.79556411370788,UB
5728,594,Ozone,Bergamo - via Goisis,290,BG,Bergamo,1996-09-13,2018-01-01,45.715912469852206,9.688958745309764,NA
6634,527,PM_tot,Castano Primo,175,MI,Castano Primo,1990-02-19,2007-02-27,45.54594268367404,8.776104584370271,NA
5742,572,Ozone,Morbegno - via Cortivacci,262,SO,Morbegno,2003-05-24,NA,46.132282960003735,9.566179893984474,UB
12670,703,Lead,Schivenoglia,NA,MN,Schivenoglia,2008-02-23,NA,45.016877820755425,11.07609463264049,RB
5735,576,Ozone,Merate,279,LC,Merate,1991-02-17,NA,45.69795198970243,9.406190938686596,UT
5563,560,NO2,Varese - via Copelli,383,VA,Varese,2003-08-07,NA,45.816973233263674,8.820240707158211,UT
5541,538,NO2,Settimo Milanese,132,MI,Settimo Milanese,1992-05-27,2018-07-30,45.480268785554635,9.056862031759728,NA
6422,630,CO,Crema - via Indipendenza $,78,CR,Crema,1999-11-03,2007-04-03,45.369413822391465,9.677268708195667,NA
6966,669,Sulfur_dioxide,Brescia - Villaggio Sereno,70,BS,Brescia,2004-11-24,NA,45.513038818653754,10.19194188877931,UB
6685,642,NO2,Pavia - via Folperti,77,PV,Pavia,2002-06-01,NA,45.19467609907785,9.164638300630086,UB
9861,673,Ozone,Voghera - via Pozzoni,90,PV,Voghera,2005-07-05,NA,44.99954598914026,9.008437381815693,UB
9999,683,NO2,Cassano d'Adda 2 - Via Milano,133,MI,Cassano d'Adda,2006-02-17,NA,45.52647254585104,9.515980483627096,UT
5745,556,Ozone,Gallarate - P.zza S.Lorenzo,240,VA,Gallarate,1991-08-30,2018-01-01,45.65745982503037,8.797570832831466,NA
6626,575,PM_tot,Nibionno,310,LC,Nibionno,1991-02-17,1999-12-28,45.751111261617815,9.265020964805544,NA
5839,507,CO,Villasanta $,176,MB,Villasanta,1990-02-14,2010-09-22,45.608621349658364,9.307118451572562,NA
17042,677,Ammonia,Cremona - Via Fatebenefratelli,43,CR,Cremona,2011-02-15,NA,45.14254063221695,10.043836158369393,UB
6779,651,NOx,Brescia - via Triumplina $,175,BS,Brescia,1999-01-16,2005-10-18,45.57158552261201,10.23148691302886,NA
6228,588,NOx,Tavernola Bergamasca,191,BG,Tavernola Bergamasca,1990-09-21,NA,45.71629992411727,10.044765999368437,SI
10054,691,Sulfur_dioxide,Ferrera Erbognone - AGIP via Indipendenza,89,PV,Ferrera Erbognone,2007-01-01,2017-01-01,45.11082363436007,8.86874423650247,RI
6639,539,PM_tot,Milano - viale Liguria,115,MI,Milano,1995-05-16,2013-05-30,45.443857653564926,9.167944501742676,UT
11041,674,Sulfur_dioxide,Monza - via Machiavelli,162,MB,Monza,2011-02-10,NA,45.58026348442243,9.273573092713274,UB
9998,683,Benzene,Cassano d'Adda 2 - Via Milano,133,MI,Cassano d'Adda,2006-02-17,NA,45.52647254585104,9.515980483627096,UT
10283,705,PM2.5,Milano - Pascal Città Studi,122,MI,Milano,2007-03-29,NA,45.47899606168744,9.235491038497502,UB
5794,584,CO,Bergamo - via Garibaldi,249,BG,Bergamo,1994-06-16,NA,45.69568034432694,9.66124914606551,UT
6260,607,NOx,Abbadia Cerreto,64,LO,Abbadia Cerreto,2000-01-13,NA,45.309502269282255,9.585790416120414,NA
12577,627,PM2.5,Cremona - p.zza Cadorna,39,CR,Cremona,2012-01-01,NA,45.13194691285173,10.015741513336042,UT
10097,697,NO2,Borgofranco - loc. Bonizzo,14,MN,Borgofranco sul Po,2006-11-29,NA,45.04650153816735,11.18093581912755,SB
6654,569,PM_tot,Sondrio - via Mazzini,307,SO,Sondrio,1993-10-28,1999-12-06,46.16796681227828,9.87014407497457,UT
10300,660,CO,Ospitaletto,155,BS,Ospitaletto,2007-08-02,2018-07-30,45.55325139975436,10.084916143968398,NA
12614,670,Arsenic,Mantova - S.Agnese,22,MN,Mantova,2008-02-19,NA,45.16056833010576,10.79556411370788,UB
5716,541,Ozone,Limbiate,181,MB,Limbiate,1995-01-17,2018-01-01,45.597443498230305,9.125948942472387,NA
12625,705,Arsenic,Milano - Pascal Città Studi,122,MI,Milano,2008-04-01,NA,45.47899606168744,9.235491038497502,UB
9873,554,PM2.5,Saronno - via Santuario,212,VA,Saronno,2005-12-11,NA,45.626218960836006,9.04006309067821,UB
12664,681,Lead,Moggio,1194,LC,Moggio,2008-06-14,NA,45.91278752030292,9.497538167653424,RB
6936,596,PM10,Osio Sotto,182,BG,Osio Sotto,2000-05-24,NA,45.62055567939559,9.611737821812373,SB
12613,670,Nikel,Mantova - S.Agnese,22,MN,Mantova,2008-02-19,NA,45.16056833010576,10.79556411370788,UB
5510,507,NO2,Villasanta $,176,MB,Villasanta,1990-02-13,2010-06-20,45.608621349658364,9.307118451572562,NA
5750,552,Ozone,Varese - Vidoletti,425,VA,Varese,1991-12-23,NA,45.83690077655548,8.80392612667495,UB
5835,504,CO,Sesto S.Giovanni,139,MI,Sesto San Giovanni,1990-04-29,NA,45.53476576509224,9.236107923411636,UT
6411,627,CO,Cremona - p.zza Cadorna,39,CR,Cremona,1997-12-12,NA,45.13194691285173,10.015741513336042,UT
6937,597,PM10,Lallio,212,BG,Lallio,2000-05-24,2017-01-01,45.65966391792855,9.618568761257565,UT
5514,511,NO2,Abbiategrasso,118,MI,Abbiategrasso,1998-01-23,2018-07-30,45.395404490146184,8.913416566778292,NA
5569,566,NO2,Olgiate Comasco - via Roma $,404,CO,Olgiate Comasco,1995-02-01,2010-04-15,45.78389725453634,8.966397886811311,NA
6610,612,PM_tot,Filago - via Fermi,176,BG,Filago,1992-01-01,NA,45.6244564811923,9.556504350318216,SI
10169,703,CO,Schivenoglia,NA,MN,Schivenoglia,2006-11-29,NA,45.016877820755425,11.07609463264049,RB
5690,603,Sulfur_dioxide,Castiraga,74,LO,Castiraga Vidardo,2000-01-13,2008-04-11,45.26232519992153,9.400281323067924,NA
6268,600,NOx,Lodi - viale Vignati,80,LO,Lodi,1999-12-30,NA,45.30601298752377,9.48526286320174,UT
5591,588,NO2,Tavernola Bergamasca,191,BG,Tavernola Bergamasca,1990-09-21,NA,45.71629992411727,10.044765999368437,SI
6918,560,PM10,Varese - via Copelli,383,VA,Varese,2003-07-17,NA,45.816973233263674,8.820240707158211,UT
5747,559,Ozone,Somma Lombardo - MXP,210,VA,Somma Lombardo,2000-03-21,2018-01-01,45.649537127292405,8.71269145828479,NA
6206,593,NOx,Ciserano,159,BG,Ciserano,1994-11-30,2018-07-30,45.591548429500484,9.606127731575759,NA
6790,653,NOx,Brescia - via Ziziola,125,BS,Brescia,1997-10-15,2018-07-30,45.51455919056731,10.218463502801265,NA
6651,503,PM_tot,Milano - P.zza  Zavattari,122,MI,Milano,1990-05-11,1999-08-01,45.47606340509791,9.141786267186658,NA
5601,598,NO2,S.Rocco al Porto,50,LO,San Rocco al Porto,2002-01-24,NA,45.081986696978625,9.70078817718398,SB
6362,519,NOx,Tribiano $,94,MI,Tribiano,1993-09-17,2006-04-13,45.40554635277101,9.370994067584798,NA
12637,548,Nikel,Milano - via Senato,118,MI,Milano,2008-07-09,NA,45.470499014097,9.197460360112531,UT
6322,541,NOx,Limbiate,181,MB,Limbiate,1994-11-24,2018-07-30,45.597443498230305,9.125948942472387,NA
5666,594,Sulfur_dioxide,Bergamo - via Goisis,290,BG,Bergamo,1996-09-13,2003-06-03,45.715912469852206,9.688958745309764,NA
6270,602,NOx,Melegnano,83,MI,Melegnano,2000-01-13,NA,45.35428575070997,9.329243424113708,NA
6967,669,CO,Brescia - Villaggio Sereno,70,BS,Brescia,2004-04-12,2012-01-04,45.513038818653754,10.19194188877931,UB
10475,1267,NO2,Turano,65,LO,Turano Lodigiano,2009-08-03,2017-03-31,45.25028308918456,9.62125819274314,NA
6310,510,NOx,Inzago,138,MI,Inzago,1991-01-16,2018-01-01,45.539768856661,9.486885367436152,NA
6899,668,Sulfur_dioxide,Mantova - Lunetta 2,25,MN,Mantova,2003-01-01,2018-07-30,45.157985278189244,10.823931433968092,NA
17040,583,Nikel,Bergamo - via Meucci,249,BG,Bergamo,2012-01-13,NA,45.69103740547214,9.643650579461385,UB
20034,693,NO2,Sannazzaro de' Burgondi - AGIP,85,PV,Sannazzaro de' Burgondi,2006-09-16,NA,45.10276627684137,8.90417452771467,UI
10431,1264,NOx,Sondrio - via Paribelli,290,SO,Sondrio,2008-11-11,NA,46.167852440665115,9.879209924469903,UB
5668,597,Sulfur_dioxide,Lallio,212,BG,Lallio,2000-04-13,2017-01-01,45.65966391792855,9.618568761257565,UT
12616,670,Lead,Mantova - S.Agnese,22,MN,Mantova,2008-02-19,NA,45.16056833010576,10.79556411370788,UB
5718,546,Ozone,Magenta,137,MI,Magenta,1995-07-29,NA,45.462415791106615,8.880210433125571,UB
6901,668,Ozone,Mantova - Lunetta 2,25,MN,Mantova,2003-01-01,2018-01-01,45.157985278189244,10.823931433968092,NA
5670,584,Sulfur_dioxide,Bergamo - via Garibaldi,249,BG,Bergamo,1994-06-16,NA,45.69568034432694,9.66124914606551,UT
17037,583,Benzo_a_pyrene,Bergamo - via Meucci,249,BG,Bergamo,2012-01-14,NA,45.69103740547214,9.643650579461385,UB
9925,677,Ozone,Cremona - Via Fatebenefratelli,43,CR,Cremona,2006-04-08,NA,45.14254063221695,10.043836158369393,UB
5680,566,Sulfur_dioxide,Olgiate Comasco - via Roma $,404,CO,Olgiate Comasco,1995-02-01,2009-02-05,45.78389725453634,8.966397886811311,NA
17293,1264,PM10,Sondrio - via Paribelli,290,SO,Sondrio,2012-10-09,NA,46.167852440665115,9.879209924469903,UB
12624,705,Nikel,Milano - Pascal Città Studi,122,MI,Milano,2008-04-01,NA,45.47899606168744,9.235491038497502,UB
10463,1266,Ozone,Bertonico,65,LO,Bertonico,2009-08-03,NA,45.23349364130374,9.666250375296032,RB
5694,602,Sulfur_dioxide,Melegnano,83,MI,Melegnano,2000-01-13,2007-11-08,45.35428575070997,9.329243424113708,NA
5951,626,Sulfur_dioxide,Corte de Cortesi,57,CR,Corte de' Cortesi con Cignone,1992-11-01,2012-01-04,45.27848755478839,10.006202391204335,RB
5544,541,NO2,Limbiate,181,MB,Limbiate,1994-11-24,2018-07-30,45.597443498230305,9.125948942472387,NA
17039,583,Cadmium,Bergamo - via Meucci,249,BG,Bergamo,2012-01-13,NA,45.69103740547214,9.643650579461385,UB
6640,531,PM_tot,Limito,114,MI,Pioltello,1989-06-05,1998-02-20,45.48363035323249,9.327360033215145,UB
5621,532,Sulfur_dioxide,Cuggiono,156,MI,Cuggiono,1989-12-18,2009-12-11,45.5014842949991,8.804453762398397,NA
6744,647,NO2,Breno,342,BS,Breno,1992-06-09,2018-07-30,45.956830532998445,10.301058339435231,NA
5595,592,NO2,Treviglio,191,BG,Treviglio,1991-06-02,NA,45.51933498138716,9.592009994888425,UT
10041,687,Ozone,Ferno,215,VA,Ferno,2006-11-06,NA,45.61924377994763,8.756970445453431,UB
10081,695,Ozone,Ponti sul Mincio,113,MN,Ponti sul Mincio,2007-02-06,NA,45.41277169168634,10.683357343786835,SB
12691,560,Arsenic,Varese - via Copelli,383,VA,Varese,2008-04-01,NA,45.816973233263674,8.820240707158211,UT
6404,625,CO,Casalmaggiore - via Volta $,23,CR,Casalmaggiore,1996-05-19,2007-02-21,44.980660403835316,10.427376916159512,NA
6636,510,PM_tot,Inzago,138,MI,Inzago,1990-12-27,2010-02-19,45.539768856661,9.486885367436152,NA
5749,554,Ozone,Saronno - via Santuario,212,VA,Saronno,1991-05-09,NA,45.626218960836006,9.04006309067821,UB
5844,572,CO,Morbegno - via Cortivacci,262,SO,Morbegno,1999-01-13,NA,46.132282960003735,9.566179893984474,UB
6419,629,NOx,Crema - via XI febbraio,79,CR,Crema,2002-01-01,NA,45.366309078194334,9.703945513613167,SB
10129,700,NOx,Melara,12,RO,Melara,2006-11-29,NA,45.063214361613305,11.20921074969938,NA
10185,704,PM10,Sermide - via Dalla Chiesa,11,MN,Sermide e Felonica,2007-01-01,2017-01-01,45.004613731114105,11.294014707706845,SB
10177,704,NOx,Sermide - via Dalla Chiesa,11,MN,Sermide e Felonica,2006-11-29,2017-01-01,45.004613731114105,11.294014707706845,SB
10179,704,NO2,Sermide - via Dalla Chiesa,11,MN,Sermide e Felonica,2006-11-29,2017-01-01,45.004613731114105,11.294014707706845,SB
10073,694,NOx,Salionze,109,VR,Salionze,2006-12-01,2013-11-20,45.40331375821289,10.72659797077939,NA
10088,696,NO2,Monzambano - campo sportivo,88,MN,Monzambano,2006-12-01,NA,45.38915354023782,10.690576265072083,SB
10077,694,PM10,Salionze,109,VR,Salionze,2006-11-29,NA,45.40331375821289,10.72659797077939,NA
10074,694,NO2,Salionze,109,VR,Salionze,2006-11-30,NA,45.40331375821289,10.72659797077939,NA
10086,696,NOx,Monzambano - campo sportivo,88,MN,Monzambano,2006-12-01,NA,45.38915354023782,10.690576265072083,SB
10089,696,CO,Monzambano - campo sportivo,88,MN,Monzambano,2006-12-01,NA,45.38915354023782,10.690576265072083,SB
10087,696,Benzene,Monzambano - campo sportivo,88,MN,Monzambano,2006-12-01,NA,45.38915354023782,10.690576265072083,SB
10291,681,Ammonia,Moggio,1194,LC,Moggio,2007-03-17,NA,45.91278752030292,9.497538167653424,RB
20487,695,CO,Ponti sul Mincio,113,MN,Ponti sul Mincio,NA,NA,45.41277169168634,10.683357343786835,SB
